{
"type": "FeatureCollection",
"name": "green",
"crs": { "type": "name", "properties": { "name": "urn:ogc:def:crs:OGC:1.3:CRS84" } },
"features": [
{ "type": "Feature", "properties": { "id": "8251374", "name": "nan", "leisure": "nan", "landuse": "recreation_ground" }, "geometry": { "type": "Polygon", "coordinates": [ [ [ 114.1459787, 22.2896141 ], [ 114.1459349, 22.2895196 ], [ 114.1458678, 22.2894381 ], [ 114.1457812, 22.2893742 ], [ 114.14568, 22.2893316 ], [ 114.1455845, 22.2893141 ], [ 114.1454868, 22.2893161 ], [ 114.1453918, 22.2893374 ], [ 114.1453041, 22.2893773 ], [ 114.1452276, 22.2894337 ], [ 114.1451661, 22.289504 ], [ 114.1451223, 22.2895851 ], [ 114.1450996, 22.2896659 ], [ 114.1450948, 22.2897494 ], [ 114.1451079, 22.2898315 ], [ 114.1451477, 22.2899265 ], [ 114.1452106, 22.2900093 ], [ 114.1452932, 22.2900757 ], [ 114.1453907, 22.2901218 ], [ 114.1454977, 22.2901448 ], [ 114.1455924, 22.2901449 ], [ 114.1456854, 22.2901266 ], [ 114.1457722, 22.2900906 ], [ 114.1458488, 22.2900386 ], [ 114.1459152, 22.2899689 ], [ 114.1459631, 22.2898873 ], [ 114.1459904, 22.289798 ], [ 114.1459956, 22.2897052 ], [ 114.1459787, 22.2896141 ] ], [ [ 114.1455468, 22.2897769 ], [ 114.1455323, 22.2897752 ], [ 114.1455192, 22.2897693 ], [ 114.1455087, 22.28976 ], [ 114.1455016, 22.2897471 ], [ 114.1454995, 22.2897327 ], [ 114.1455029, 22.2897185 ], [ 114.1455111, 22.2897062 ], [ 114.1455234, 22.2896972 ], [ 114.1455383, 22.2896926 ], [ 114.1455539, 22.2896928 ], [ 114.1455686, 22.2896979 ], [ 114.1455805, 22.2897073 ], [ 114.145588, 22.2897189 ], [ 114.1455911, 22.2897321 ], [ 114.1455896, 22.2897455 ], [ 114.1455836, 22.2897578 ], [ 114.1455738, 22.2897677 ], [ 114.1455611, 22.2897743 ], [ 114.1455468, 22.2897769 ] ] ] } },
{ "type": "Feature", "properties": { "id": "12955469", "name": "吉席街花園 Catchick Street Garden", "leisure": "garden", "landuse": "nan" }, "geometry": { "type": "MultiPolygon", "coordinates": [ [ [ [ 114.1263951, 22.2829102 ], [ 114.1264614, 22.2825664 ], [ 114.1261585, 22.2825164 ], [ 114.1261135, 22.2827494 ], [ 114.1263107, 22.2827819 ], [ 114.1262893, 22.2828927 ], [ 114.1263951, 22.2829102 ] ] ], [ [ [ 114.1264663, 22.2836318 ], [ 114.1265259, 22.2835921 ], [ 114.1266156, 22.2831524 ], [ 114.1265732, 22.2830949 ], [ 114.1264105, 22.2830669 ], [ 114.1263026, 22.2836036 ], [ 114.1264663, 22.2836318 ] ] ] ] } },
{ "type": "Feature", "properties": { "id": "26201750", "name": "佐治五世紀念公園 King George V Memorial Park", "leisure": "park", "landuse": "nan" }, "geometry": { "type": "Polygon", "coordinates": [ [ [ 114.1437291, 22.2860525 ], [ 114.1436997, 22.2853651 ], [ 114.1436902, 22.2851449 ], [ 114.1447995, 22.2851043 ], [ 114.1448002, 22.285121 ], [ 114.1450443, 22.2854686 ], [ 114.1450673, 22.2860034 ], [ 114.1449939, 22.2860061 ], [ 114.1447873, 22.2860137 ], [ 114.1447041, 22.2860167 ], [ 114.1445503, 22.2860224 ], [ 114.1445258, 22.2860233 ], [ 114.1444666, 22.2860255 ], [ 114.1437291, 22.2860525 ] ] ] } },
{ "type": "Feature", "properties": { "id": "26201751", "name": "卑路乍灣公園 Belcher Bay Park", "leisure": "park", "landuse": "nan" }, "geometry": { "type": "Polygon", "coordinates": [ [ [ 114.1293854, 22.2841676 ], [ 114.1294079, 22.2841324 ], [ 114.1294414, 22.2840903 ], [ 114.1294828, 22.2840464 ], [ 114.1294974, 22.2840424 ], [ 114.1296243, 22.284034 ], [ 114.1297146, 22.284028 ], [ 114.1302138, 22.2844315 ], [ 114.131221, 22.2852455 ], [ 114.1312199, 22.2852771 ], [ 114.1312176, 22.2853367 ], [ 114.1308049, 22.2857715 ], [ 114.1307708, 22.2857739 ], [ 114.1306796, 22.2857803 ], [ 114.1295122, 22.2847531 ], [ 114.1294781, 22.28472 ], [ 114.1294494, 22.2846856 ], [ 114.1294169, 22.2846407 ], [ 114.1293828, 22.2845875 ], [ 114.1293648, 22.2845493 ], [ 114.129347, 22.2845003 ], [ 114.1293351, 22.2844478 ], [ 114.1293299, 22.2843893 ], [ 114.1293328, 22.2843243 ], [ 114.129343, 22.284272 ], [ 114.1293627, 22.284216 ], [ 114.1293854, 22.2841676 ] ] ] } },
{ "type": "Feature", "properties": { "id": "26305680", "name": "中山紀念公園 Sun Yat Sen Memorial Park", "leisure": "park", "landuse": "nan" }, "geometry": { "type": "Polygon", "coordinates": [ [ [ 114.1476783, 22.2899998 ], [ 114.1476254, 22.2900128 ], [ 114.14749, 22.2900462 ], [ 114.1458882, 22.2904413 ], [ 114.1457072, 22.2904858 ], [ 114.1455841, 22.2904999 ], [ 114.1436135, 22.2905628 ], [ 114.1436132, 22.2905394 ], [ 114.1436131, 22.2905164 ], [ 114.1436129, 22.2904972 ], [ 114.1436122, 22.2904406 ], [ 114.143611, 22.2903479 ], [ 114.1436107, 22.2903219 ], [ 114.1436104, 22.290298 ], [ 114.1439389, 22.2902884 ], [ 114.1439335, 22.2901303 ], [ 114.1439184, 22.2896835 ], [ 114.1436704, 22.289689 ], [ 114.1437399, 22.2896667 ], [ 114.1437972, 22.2896409 ], [ 114.1438333, 22.2896164 ], [ 114.1438731, 22.2895736 ], [ 114.1438889, 22.2895566 ], [ 114.1439146, 22.2895079 ], [ 114.1439381, 22.2894621 ], [ 114.1439746, 22.2893453 ], [ 114.1440018, 22.2892998 ], [ 114.144045, 22.2892635 ], [ 114.1444522, 22.2890427 ], [ 114.1449275, 22.2890317 ], [ 114.1453228, 22.2890402 ], [ 114.1464514, 22.2890612 ], [ 114.1468904, 22.2890251 ], [ 114.1472451, 22.2889319 ], [ 114.1474942, 22.2898829 ], [ 114.1469121, 22.2900224 ], [ 114.1467961, 22.2900115 ], [ 114.1466799, 22.2898347 ], [ 114.1466281, 22.2898776 ], [ 114.1465059, 22.2897678 ], [ 114.146409, 22.2896827 ], [ 114.1462701, 22.2897177 ], [ 114.1461116, 22.2898247 ], [ 114.1460673, 22.2899651 ], [ 114.1460955, 22.2900989 ], [ 114.1461864, 22.2901768 ], [ 114.146341, 22.2902224 ], [ 114.1475055, 22.2899189 ], [ 114.1475874, 22.2898976 ], [ 114.1476783, 22.2899998 ] ] ] } },
{ "type": "Feature", "properties": { "id": "26725169", "name": "加多近街花園 Cadogan Street Garden", "leisure": "garden", "landuse": "nan" }, "geometry": { "type": "Polygon", "coordinates": [ [ [ 114.1247853, 22.2824412 ], [ 114.124832, 22.2822266 ], [ 114.1250271, 22.2822534 ], [ 114.1256337, 22.2823368 ], [ 114.1258233, 22.2823628 ], [ 114.1258791, 22.2823717 ], [ 114.1259191, 22.2823928 ], [ 114.1259317, 22.2824271 ], [ 114.1258978, 22.2825982 ], [ 114.1258582, 22.2828336 ], [ 114.1248896, 22.2827083 ], [ 114.1249314, 22.2824625 ], [ 114.1247853, 22.2824412 ] ] ] } },
{ "type": "Feature", "properties": { "id": "178594543", "name": "nan", "leisure": "playground", "landuse": "nan" }, "geometry": { "type": "Polygon", "coordinates": [ [ [ 114.1447981, 22.2893859 ], [ 114.1450484, 22.289373 ], [ 114.1450388, 22.2892128 ], [ 114.1447885, 22.2892256 ], [ 114.1447981, 22.2893859 ] ] ] } },
{ "type": "Feature", "properties": { "id": "181770583", "name": "玫瑰里兒童遊樂場 Rose Lane Children's Playground", "leisure": "playground", "landuse": "nan" }, "geometry": { "type": "Polygon", "coordinates": [ [ [ 114.1392797, 22.2854289 ], [ 114.1392968, 22.285588 ], [ 114.1395593, 22.2855644 ], [ 114.139678, 22.2855538 ], [ 114.1398275, 22.2855404 ], [ 114.1398254, 22.2855144 ], [ 114.1398173, 22.2854986 ], [ 114.1397959, 22.2854893 ], [ 114.1394691, 22.2854448 ], [ 114.1393992, 22.2854184 ], [ 114.1393642, 22.2853931 ], [ 114.1393208, 22.2853902 ], [ 114.139324, 22.2854251 ], [ 114.1392797, 22.2854289 ] ] ] } },
{ "type": "Feature", "properties": { "id": "182174464", "name": "第三街遊樂場 Third Street Playground", "leisure": "park", "landuse": "nan" }, "geometry": { "type": "Polygon", "coordinates": [ [ [ 114.1386656, 22.2855728 ], [ 114.1383494, 22.2855779 ], [ 114.1383572, 22.2858303 ], [ 114.1381982, 22.2858448 ], [ 114.1381806, 22.2856278 ], [ 114.1378959, 22.2856491 ], [ 114.1378789, 22.2854936 ], [ 114.1380895, 22.2854733 ], [ 114.1381918, 22.2854634 ], [ 114.1381926, 22.285503 ], [ 114.1381934, 22.2855441 ], [ 114.1383247, 22.2855418 ], [ 114.1383242, 22.285519 ], [ 114.1385087, 22.2855158 ], [ 114.1385063, 22.2853963 ], [ 114.1385054, 22.2853562 ], [ 114.1385334, 22.2853555 ], [ 114.1385776, 22.2853545 ], [ 114.1386025, 22.2853539 ], [ 114.1386622, 22.2853534 ], [ 114.1386656, 22.2855728 ] ] ] } },
{ "type": "Feature", "properties": { "id": "182214592", "name": "山道花園 Hill Road Garden", "leisure": "garden", "landuse": "nan" }, "geometry": { "type": "Polygon", "coordinates": [ [ [ 114.1355694, 22.284914 ], [ 114.1355367, 22.2848622 ], [ 114.135522, 22.2848213 ], [ 114.1355131, 22.2848092 ], [ 114.1354996, 22.284791 ], [ 114.1354759, 22.2847588 ], [ 114.1354482, 22.2847378 ], [ 114.1353862, 22.2844921 ], [ 114.1354268, 22.284451 ], [ 114.1354636, 22.2843894 ], [ 114.1355172, 22.2843894 ], [ 114.1357342, 22.284349 ], [ 114.135755, 22.2845916 ], [ 114.1358099, 22.2848734 ], [ 114.1356844, 22.2848957 ], [ 114.1355694, 22.284914 ] ] ] } },
{ "type": "Feature", "properties": { "id": "182329565", "name": "nan", "leisure": "nan", "landuse": "recreation_ground" }, "geometry": { "type": "Polygon", "coordinates": [ [ [ 114.1311761, 22.2800479 ], [ 114.1312885, 22.2803334 ], [ 114.130921, 22.2804573 ], [ 114.1308086, 22.2801717 ], [ 114.1311761, 22.2800479 ] ] ] } },
{ "type": "Feature", "properties": { "id": "182467470", "name": "屈地街兒童遊樂場 Whitty Street Children's Playground", "leisure": "playground", "landuse": "nan" }, "geometry": { "type": "Polygon", "coordinates": [ [ [ 114.1361542, 22.2863437 ], [ 114.1361179, 22.286203 ], [ 114.1363743, 22.2861445 ], [ 114.136298, 22.2863829 ], [ 114.1361542, 22.2863437 ] ] ] } },
{ "type": "Feature", "properties": { "id": "183004999", "name": "山道天橋底休憩處 Sitting Out Area Under Flyover in Hill Road", "leisure": "garden", "landuse": "nan" }, "geometry": { "type": "Polygon", "coordinates": [ [ [ 114.1353407, 22.2866426 ], [ 114.1352242, 22.2862156 ], [ 114.1352535, 22.286223 ], [ 114.1352796, 22.2862487 ], [ 114.1353661, 22.2865694 ], [ 114.1353832, 22.2866329 ], [ 114.1353407, 22.2866426 ] ] ] } },
{ "type": "Feature", "properties": { "id": "183005002", "name": "加倫臺兒童遊樂場 Clarence Terrace Children's Playground", "leisure": "playground", "landuse": "nan" }, "geometry": { "type": "Polygon", "coordinates": [ [ [ 114.1361922, 22.2852069 ], [ 114.1361974, 22.2852296 ], [ 114.1362479, 22.2852195 ], [ 114.1365489, 22.2851585 ], [ 114.1364803, 22.2851504 ], [ 114.1361922, 22.2852069 ] ] ] } },
{ "type": "Feature", "properties": { "id": "183006223", "name": "第三街休憩處 Third Street Sitting-out Area", "leisure": "playground", "landuse": "nan" }, "geometry": { "type": "Polygon", "coordinates": [ [ [ 114.1410924, 22.2857577 ], [ 114.1410529, 22.2857589 ], [ 114.1410371, 22.2857594 ], [ 114.1410214, 22.2857599 ], [ 114.1409837, 22.2857612 ], [ 114.1409872, 22.2858544 ], [ 114.1410959, 22.2858509 ], [ 114.1410924, 22.2857577 ] ] ] } },
{ "type": "Feature", "properties": { "id": "185736994", "name": "薄扶林道遊樂場 Pok Fu Lam Road Playground", "leisure": "park", "landuse": "nan" }, "geometry": { "type": "Polygon", "coordinates": [ [ [ 114.130848, 22.2774955 ], [ 114.1308433, 22.277457 ], [ 114.1308494, 22.2774274 ], [ 114.1309199, 22.2774092 ], [ 114.1310218, 22.2774588 ], [ 114.1311096, 22.277549 ], [ 114.1311455, 22.2776032 ], [ 114.1312295, 22.2775752 ], [ 114.1313309, 22.2775413 ], [ 114.1312068, 22.2773297 ], [ 114.1310647, 22.2772007 ], [ 114.1310091, 22.2771771 ], [ 114.130905, 22.2771453 ], [ 114.1307663, 22.2770989 ], [ 114.130875, 22.2770917 ], [ 114.1309925, 22.2770696 ], [ 114.1311109, 22.2770425 ], [ 114.1312649, 22.2770382 ], [ 114.1313245, 22.2770466 ], [ 114.1313784, 22.2770542 ], [ 114.131438, 22.277075 ], [ 114.1315019, 22.2771163 ], [ 114.1315689, 22.277161 ], [ 114.1316306, 22.2772305 ], [ 114.1316762, 22.2773223 ], [ 114.131687, 22.2773595 ], [ 114.131687, 22.2773918 ], [ 114.1316789, 22.2774588 ], [ 114.1316353, 22.2775664 ], [ 114.1316011, 22.27764 ], [ 114.1314938, 22.2777045 ], [ 114.1314556, 22.2778022 ], [ 114.1314885, 22.2779651 ], [ 114.1315475, 22.2780917 ], [ 114.1316005, 22.2782564 ], [ 114.1316347, 22.2783738 ], [ 114.1316229, 22.2784731 ], [ 114.1315851, 22.2785843 ], [ 114.1314812, 22.2787096 ], [ 114.1313556, 22.2788145 ], [ 114.1312791, 22.278839 ], [ 114.1312379, 22.2787588 ], [ 114.1312339, 22.2786846 ], [ 114.1312547, 22.2786169 ], [ 114.1312261, 22.2783791 ], [ 114.1311645, 22.2781948 ], [ 114.1311244, 22.2780259 ], [ 114.1311149, 22.2780055 ], [ 114.1310061, 22.2777815 ], [ 114.130848, 22.2774955 ] ] ] } },
{ "type": "Feature", "properties": { "id": "200293814", "name": "nan", "leisure": "garden", "landuse": "nan" }, "geometry": { "type": "Polygon", "coordinates": [ [ [ 114.1434408, 22.2834107 ], [ 114.1434172, 22.2838297 ], [ 114.1429945, 22.2839182 ], [ 114.1428596, 22.2839558 ], [ 114.1427243, 22.2840578 ], [ 114.1427026, 22.2840432 ], [ 114.1427019, 22.2836686 ], [ 114.1434408, 22.2834107 ] ] ] } },
{ "type": "Feature", "properties": { "id": "200293828", "name": "城西公園 West End Park", "leisure": "park", "landuse": "nan" }, "geometry": { "type": "Polygon", "coordinates": [ [ [ 114.1428145, 22.2836024 ], [ 114.1428174, 22.2835699 ], [ 114.1428353, 22.2833665 ], [ 114.1431169, 22.2832115 ], [ 114.1434424, 22.2832106 ], [ 114.1434372, 22.2833944 ], [ 114.1428145, 22.2836024 ] ] ] } },
{ "type": "Feature", "properties": { "id": "230943077", "name": "西安里休憩花園 Sai On Lane Rest Garden", "leisure": "garden", "landuse": "nan" }, "geometry": { "type": "Polygon", "coordinates": [ [ [ 114.1372852, 22.2866099 ], [ 114.1373478, 22.286402 ], [ 114.1376874, 22.2864922 ], [ 114.1376212, 22.2867058 ], [ 114.1372852, 22.2866099 ] ] ] } },
{ "type": "Feature", "properties": { "id": "230943684", "name": "西安里兒童遊樂場 Sai On Lane Children's Playground", "leisure": "playground", "landuse": "nan" }, "geometry": { "type": "Polygon", "coordinates": [ [ [ 114.1383511, 22.2870565 ], [ 114.1376242, 22.2868605 ], [ 114.1376577, 22.2867541 ], [ 114.1383845, 22.2869499 ], [ 114.1383511, 22.2870565 ] ] ] } },
{ "type": "Feature", "properties": { "id": "275863446", "name": "nan", "leisure": "garden", "landuse": "nan" }, "geometry": { "type": "Polygon", "coordinates": [ [ [ 114.1340589, 22.2797324 ], [ 114.1340764, 22.2796828 ], [ 114.1341099, 22.2796133 ], [ 114.1341421, 22.2795277 ], [ 114.1341126, 22.2795153 ], [ 114.1340214, 22.2795512 ], [ 114.1339691, 22.279612 ], [ 114.133949, 22.2797039 ], [ 114.1339691, 22.2797275 ], [ 114.1340589, 22.2797324 ] ] ] } },
{ "type": "Feature", "properties": { "id": "312192551", "name": "公眾休憩用地 Public Open Space", "leisure": "garden", "landuse": "nan" }, "geometry": { "type": "Polygon", "coordinates": [ [ [ 114.1287139, 22.2830016 ], [ 114.1287316, 22.2829115 ], [ 114.1289456, 22.2829476 ], [ 114.1289279, 22.2830377 ], [ 114.1287139, 22.2830016 ] ] ] } },
{ "type": "Feature", "properties": { "id": "312192557", "name": "石山街休憩處 Rock Hill Street Sitting-out Area", "leisure": "park", "landuse": "nan" }, "geometry": { "type": "Polygon", "coordinates": [ [ [ 114.1303506, 22.2829215 ], [ 114.1302141, 22.2828167 ], [ 114.1303144, 22.2826928 ], [ 114.1303481, 22.2827396 ], [ 114.1303671, 22.2827824 ], [ 114.1303748, 22.2828285 ], [ 114.1303723, 22.2828621 ], [ 114.1303672, 22.2828888 ], [ 114.1303506, 22.2829215 ] ] ] } },
{ "type": "Feature", "properties": { "id": "312192632", "name": "蒲飛路休憩處 Pokfield Road Sitting-out Area", "leisure": "garden", "landuse": "nan" }, "geometry": { "type": "Polygon", "coordinates": [ [ [ 114.1296271, 22.2802531 ], [ 114.1294225, 22.2801683 ], [ 114.1294031, 22.2802143 ], [ 114.1294024, 22.2802317 ], [ 114.1294121, 22.2802496 ], [ 114.1295813, 22.2803186 ], [ 114.1296271, 22.2802531 ] ] ] } },
{ "type": "Feature", "properties": { "id": "312192969", "name": "nan", "leisure": "recreation_ground", "landuse": "recreation_ground" }, "geometry": { "type": "Polygon", "coordinates": [ [ [ 114.1303676, 22.2851498 ], [ 114.1302653, 22.285115 ], [ 114.1301776, 22.2850319 ], [ 114.1301463, 22.2849585 ], [ 114.1301484, 22.284887 ], [ 114.1301839, 22.2848271 ], [ 114.1302757, 22.2847943 ], [ 114.1303697, 22.2848175 ], [ 114.1304761, 22.2848793 ], [ 114.1305513, 22.2849662 ], [ 114.1305785, 22.2850532 ], [ 114.1304887, 22.2851555 ], [ 114.1303676, 22.2851498 ] ] ] } },
{ "type": "Feature", "properties": { "id": "317523800", "name": "科士街臨時遊樂場 Forbes Street Temporary Playground", "leisure": "park", "landuse": "nan" }, "geometry": { "type": "Polygon", "coordinates": [ [ [ 114.128024, 22.2810142 ], [ 114.1279263, 22.2813473 ], [ 114.1277735, 22.2813185 ], [ 114.1276954, 22.2813051 ], [ 114.1274973, 22.2812709 ], [ 114.1272801, 22.2812335 ], [ 114.1273576, 22.2808932 ], [ 114.128024, 22.2810142 ] ] ] } },
{ "type": "Feature", "properties": { "id": "320983981", "name": "卑路乍街休憩處 Belcher's Street Sitting-out Area", "leisure": "garden", "landuse": "nan" }, "geometry": { "type": "Polygon", "coordinates": [ [ [ 114.1321625, 22.2848685 ], [ 114.1322829, 22.2850539 ], [ 114.1324094, 22.2849846 ], [ 114.1323509, 22.2848756 ], [ 114.1322796, 22.2848319 ], [ 114.1321625, 22.2848685 ] ] ] } },
{ "type": "Feature", "properties": { "id": "390554531", "name": "百周年花園 Centennial Garden", "leisure": "park", "landuse": "nan" }, "geometry": { "type": "Polygon", "coordinates": [ [ [ 114.1334002, 22.2828419 ], [ 114.1332037, 22.2828992 ], [ 114.132985, 22.2828992 ], [ 114.1329185, 22.2829947 ], [ 114.1329907, 22.2831401 ], [ 114.1331647, 22.2832457 ], [ 114.1333231, 22.2832438 ], [ 114.133511, 22.2830896 ], [ 114.1334942, 22.2830461 ], [ 114.1334313, 22.282913 ], [ 114.1336232, 22.2828271 ], [ 114.1336877, 22.2829507 ], [ 114.1337196, 22.2830174 ], [ 114.1344194, 22.282999 ], [ 114.1344229, 22.2827465 ], [ 114.134299, 22.2826382 ], [ 114.134174, 22.2825852 ], [ 114.1339126, 22.2826096 ], [ 114.133645, 22.28275 ], [ 114.1334002, 22.2828419 ] ] ] } },
{ "type": "Feature", "properties": { "id": "487492690", "name": "nan", "leisure": "garden", "landuse": "nan" }, "geometry": { "type": "Polygon", "coordinates": [ [ [ 114.129202, 22.2787809 ], [ 114.1291886, 22.2787129 ], [ 114.1293444, 22.2786737 ], [ 114.1293411, 22.2785964 ], [ 114.1295224, 22.2786105 ], [ 114.129737, 22.2786651 ], [ 114.1299086, 22.2787247 ], [ 114.1299782, 22.2787939 ], [ 114.1300295, 22.2789051 ], [ 114.1300409, 22.2790049 ], [ 114.1300285, 22.2790951 ], [ 114.1299935, 22.2791728 ], [ 114.1299408, 22.2792409 ], [ 114.1298523, 22.2792831 ], [ 114.1297611, 22.2793129 ], [ 114.1296431, 22.2793501 ], [ 114.1295841, 22.2793352 ], [ 114.1295438, 22.2792881 ], [ 114.1295203, 22.2792319 ], [ 114.1297583, 22.2791934 ], [ 114.1296823, 22.2787908 ], [ 114.1292152, 22.2788664 ], [ 114.129202, 22.2787809 ] ] ] } },
{ "type": "Feature", "properties": { "id": "534044193", "name": "nan", "leisure": "garden", "landuse": "nan" }, "geometry": { "type": "Polygon", "coordinates": [ [ [ 114.1343263, 22.283528 ], [ 114.1345311, 22.283522 ], [ 114.1345278, 22.2833446 ], [ 114.1343218, 22.283352 ], [ 114.1343263, 22.283528 ] ] ] } },
{ "type": "Feature", "properties": { "id": "534044194", "name": "nan", "leisure": "garden", "landuse": "nan" }, "geometry": { "type": "Polygon", "coordinates": [ [ [ 114.1346792, 22.2833392 ], [ 114.1346847, 22.2835099 ], [ 114.134883, 22.2835069 ], [ 114.1348775, 22.2833321 ], [ 114.1346792, 22.2833392 ] ] ] } },
{ "type": "Feature", "properties": { "id": "536451325", "name": "天台花園 Rooftop Garden", "leisure": "garden", "landuse": "nan" }, "geometry": { "type": "Polygon", "coordinates": [ [ [ 114.1343744, 22.2835878 ], [ 114.1343822, 22.2836327 ], [ 114.1343488, 22.2836417 ], [ 114.1343019, 22.2836653 ], [ 114.1342847, 22.2836816 ], [ 114.1342482, 22.2837162 ], [ 114.1342402, 22.2837447 ], [ 114.1342456, 22.2837658 ], [ 114.134267, 22.2837795 ], [ 114.1343086, 22.2837807 ], [ 114.1343346, 22.2837804 ], [ 114.1347149, 22.2837733 ], [ 114.1347592, 22.2837652 ], [ 114.1347874, 22.2837398 ], [ 114.1348008, 22.2837125 ], [ 114.1347968, 22.283674 ], [ 114.1347793, 22.2836492 ], [ 114.1347499, 22.2836378 ], [ 114.1347481, 22.2836171 ], [ 114.1347472, 22.2836015 ], [ 114.1347446, 22.2835579 ], [ 114.13481, 22.2835553 ], [ 114.1348367, 22.2835642 ], [ 114.1348629, 22.2835868 ], [ 114.1348815, 22.2836121 ], [ 114.1348933, 22.2836502 ], [ 114.1349007, 22.2837052 ], [ 114.1349048, 22.2837352 ], [ 114.1349014, 22.2837874 ], [ 114.1345327, 22.2837955 ], [ 114.134533, 22.2838251 ], [ 114.1344422, 22.2838254 ], [ 114.1344413, 22.2838005 ], [ 114.1343573, 22.2838067 ], [ 114.1342947, 22.2838223 ], [ 114.1340805, 22.2838758 ], [ 114.1340429, 22.2838764 ], [ 114.1340139, 22.2838604 ], [ 114.1340009, 22.283842 ], [ 114.1339584, 22.2837053 ], [ 114.1342607, 22.2836199 ], [ 114.1342615, 22.2836197 ], [ 114.1343744, 22.2835878 ] ] ] } },
{ "type": "Feature", "properties": { "id": "540330306", "name": "李陞街遊樂場 Li Sing Street Playground", "leisure": "park", "landuse": "nan" }, "geometry": { "type": "Polygon", "coordinates": [ [ [ 114.1451292, 22.2871405 ], [ 114.1454448, 22.2868853 ], [ 114.1456774, 22.2866972 ], [ 114.1458137, 22.286587 ], [ 114.1459939, 22.2867779 ], [ 114.1458595, 22.2868866 ], [ 114.1453093, 22.2873313 ], [ 114.1451292, 22.2871405 ] ] ] } },
{ "type": "Feature", "properties": { "id": "544609591", "name": "蒙國平花園 Mong Kwok Ping Garden", "leisure": "garden", "landuse": "nan" }, "geometry": { "type": "Polygon", "coordinates": [ [ [ 114.1381445, 22.2826698 ], [ 114.1387598, 22.2826584 ], [ 114.138756, 22.2827777 ], [ 114.1386981, 22.2828455 ], [ 114.1386297, 22.2828947 ], [ 114.1385596, 22.2829174 ], [ 114.1382596, 22.2829292 ], [ 114.1382483, 22.2828493 ], [ 114.1381495, 22.2827775 ], [ 114.1381445, 22.2826698 ] ] ] } },
{ "type": "Feature", "properties": { "id": "557600419", "name": "nan", "leisure": "recreation_ground", "landuse": "recreation_ground" }, "geometry": { "type": "Polygon", "coordinates": [ [ [ 114.1395761, 22.2902939 ], [ 114.1396373, 22.2901131 ], [ 114.1396146, 22.2901053 ], [ 114.1396633, 22.2899676 ], [ 114.1395435, 22.289939 ], [ 114.1394844, 22.2901461 ], [ 114.1394411, 22.2902957 ], [ 114.1395761, 22.2902939 ] ] ] } },
{ "type": "Feature", "properties": { "id": "583518390", "name": "nan", "leisure": "playground", "landuse": "nan" }, "geometry": { "type": "Polygon", "coordinates": [ [ [ 114.1448621, 22.2859233 ], [ 114.1450337, 22.2859151 ], [ 114.1450284, 22.2857988 ], [ 114.1449435, 22.2857448 ], [ 114.1450125, 22.2856335 ], [ 114.1449453, 22.2855974 ], [ 114.1448568, 22.285717 ], [ 114.1448568, 22.2857808 ], [ 114.1449028, 22.2858054 ], [ 114.1448621, 22.2858676 ], [ 114.1448621, 22.2859233 ] ] ] } },
{ "type": "Feature", "properties": { "id": "584492824", "name": "中西區海濱長廊-西區副食品批發市場段 Central and Western District Promenade - Western Wholesale Food Market Section", "leisure": "park", "landuse": "nan" }, "geometry": { "type": "Polygon", "coordinates": [ [ [ 114.1348028, 22.2891587 ], [ 114.1347283, 22.2891404 ], [ 114.1346126, 22.2891119 ], [ 114.1345864, 22.2892071 ], [ 114.1351143, 22.2893398 ], [ 114.1350156, 22.2896891 ], [ 114.1351624, 22.2897259 ], [ 114.135261, 22.2893767 ], [ 114.1359598, 22.2895523 ], [ 114.1358548, 22.2898993 ], [ 114.1359993, 22.2899354 ], [ 114.1361043, 22.2895887 ], [ 114.1369828, 22.2898095 ], [ 114.1368823, 22.2901566 ], [ 114.1370273, 22.2901929 ], [ 114.1371278, 22.289846 ], [ 114.1380218, 22.2900708 ], [ 114.1383195, 22.2901456 ], [ 114.1382893, 22.2902511 ], [ 114.1383363, 22.2902626 ], [ 114.1382736, 22.2904819 ], [ 114.1382255, 22.2904703 ], [ 114.1382196, 22.2904914 ], [ 114.1383622, 22.2905271 ], [ 114.1383685, 22.2905046 ], [ 114.1383177, 22.2904924 ], [ 114.1383803, 22.2902734 ], [ 114.1384351, 22.2902868 ], [ 114.138465, 22.2901822 ], [ 114.1386021, 22.2902166 ], [ 114.1386086, 22.2901956 ], [ 114.1386159, 22.2901722 ], [ 114.1386203, 22.290158 ], [ 114.1347921, 22.2891941 ], [ 114.1348028, 22.2891587 ] ] ] } },
{ "type": "Feature", "properties": { "id": "585063782", "name": "士美菲路兒童遊樂場 Smithfield Road Children's Playground", "leisure": "playground", "landuse": "nan" }, "geometry": { "type": "Polygon", "coordinates": [ [ [ 114.128169, 22.2839462 ], [ 114.128228, 22.2839539 ], [ 114.1283053, 22.2835586 ], [ 114.1282434, 22.2835472 ], [ 114.1281982, 22.2837896 ], [ 114.128169, 22.2839462 ] ] ] } },
{ "type": "Feature", "properties": { "id": "599402903", "name": "nan", "leisure": "nan", "landuse": "grass" }, "geometry": { "type": "Polygon", "coordinates": [ [ [ 114.1369531, 22.2901321 ], [ 114.1370282, 22.2901512 ], [ 114.137034, 22.2901319 ], [ 114.1369994, 22.2901231 ], [ 114.1370317, 22.2900147 ], [ 114.1370651, 22.2900232 ], [ 114.13712, 22.2898387 ], [ 114.1370461, 22.2898198 ], [ 114.1369531, 22.2901321 ] ] ] } },
{ "type": "Feature", "properties": { "id": "599402904", "name": "nan", "leisure": "playground", "landuse": "nan" }, "geometry": { "type": "Polygon", "coordinates": [ [ [ 114.1350444, 22.2896695 ], [ 114.1351418, 22.2896943 ], [ 114.1352357, 22.2893778 ], [ 114.1351382, 22.2893531 ], [ 114.1350444, 22.2896695 ] ] ] } },
{ "type": "Feature", "properties": { "id": "613266313", "name": "堅尼地城游泳池休憩處 Kennedy Town Swimming Pool Sitting-out Area", "leisure": "garden", "landuse": "nan" }, "geometry": { "type": "Polygon", "coordinates": [ [ [ 114.1319408, 22.2867488 ], [ 114.1323632, 22.2871156 ], [ 114.132461, 22.2870978 ], [ 114.1321273, 22.2865773 ], [ 114.1319408, 22.2867488 ] ] ] } },
{ "type": "Feature", "properties": { "id": "632035599", "name": "干德道休憩花園 Conduit Road Rest Garden", "leisure": "garden", "landuse": "nan" }, "geometry": { "type": "Polygon", "coordinates": [ [ [ 114.1428337, 22.2822062 ], [ 114.1427951, 22.2820448 ], [ 114.1433599, 22.2818659 ], [ 114.1433473, 22.281599 ], [ 114.1433002, 22.2816279 ], [ 114.1432569, 22.2816461 ], [ 114.1427486, 22.2818327 ], [ 114.1426261, 22.2818288 ], [ 114.142573, 22.281822 ], [ 114.1425215, 22.2818093 ], [ 114.1424717, 22.2817927 ], [ 114.1424281, 22.2817739 ], [ 114.1423861, 22.2817498 ], [ 114.1418591, 22.2814066 ], [ 114.1417923, 22.2815926 ], [ 114.1428337, 22.2822062 ] ] ] } },
{ "type": "Feature", "properties": { "id": "632035602", "name": "干德道兒童遊樂場 Conduit Road Children's Playground", "leisure": "playground", "landuse": "nan" }, "geometry": { "type": "Polygon", "coordinates": [ [ [ 114.141481, 22.2811023 ], [ 114.1415642, 22.2811196 ], [ 114.1418163, 22.281281 ], [ 114.1419343, 22.281132 ], [ 114.1414918, 22.2810303 ], [ 114.141481, 22.2811023 ] ] ] } },
{ "type": "Feature", "properties": { "id": "632036064", "name": "旭龢道休憩花園 Kotewall Road Rest Garden", "leisure": "garden", "landuse": "nan" }, "geometry": { "type": "Polygon", "coordinates": [ [ [ 114.1414066, 22.2815875 ], [ 114.1415159, 22.2817538 ], [ 114.1416433, 22.2818301 ], [ 114.1417158, 22.2816347 ], [ 114.1413671, 22.2814454 ], [ 114.1414066, 22.2815875 ] ] ] } },
{ "type": "Feature", "properties": { "id": "663284604", "name": "士美非路休憩處 Smithfield Sitting-out Area", "leisure": "park", "landuse": "nan" }, "geometry": { "type": "Polygon", "coordinates": [ [ [ 114.1294134, 22.2821208 ], [ 114.1294339, 22.2820378 ], [ 114.1293558, 22.2820219 ], [ 114.1293358, 22.2821109 ], [ 114.1292158, 22.2820872 ], [ 114.12932, 22.2815962 ], [ 114.1289509, 22.28153 ], [ 114.129045, 22.2811744 ], [ 114.1290463, 22.2811505 ], [ 114.1290384, 22.281127 ], [ 114.1290175, 22.2811052 ], [ 114.128993, 22.2810884 ], [ 114.1289638, 22.2810792 ], [ 114.1287542, 22.2810344 ], [ 114.1287745, 22.28096 ], [ 114.1292626, 22.2810638 ], [ 114.1291685, 22.2814641 ], [ 114.1296326, 22.2815677 ], [ 114.1296286, 22.2815865 ], [ 114.1296244, 22.2816061 ], [ 114.129568, 22.2818519 ], [ 114.1295975, 22.2819387 ], [ 114.1295814, 22.2820455 ], [ 114.1294134, 22.2821208 ] ] ] } },
{ "type": "Feature", "properties": { "id": "761609173", "name": "堅農圃 K-FARM", "leisure": "garden", "landuse": "nan" }, "geometry": { "type": "Polygon", "coordinates": [ [ [ 114.1286825, 22.2845864 ], [ 114.1294998, 22.2853056 ], [ 114.1295657, 22.285359 ], [ 114.129622, 22.2853014 ], [ 114.1296427, 22.2852343 ], [ 114.1287881, 22.2844853 ], [ 114.1286825, 22.2845864 ] ] ] } },
{ "type": "Feature", "properties": { "id": "761609177", "name": "卑路乍灣海濱長廊 Belcher Bay Promenade", "leisure": "park", "landuse": "nan" }, "geometry": { "type": "Polygon", "coordinates": [ [ [ 114.1286825, 22.2845864 ], [ 114.1284971, 22.2847668 ], [ 114.1284738, 22.2847895 ], [ 114.128452, 22.2848107 ], [ 114.1296723, 22.2858849 ], [ 114.1296984, 22.2858596 ], [ 114.1297289, 22.2858299 ], [ 114.1298842, 22.2856788 ], [ 114.1299031, 22.2856605 ], [ 114.1295657, 22.285359 ], [ 114.1294998, 22.2853056 ], [ 114.1286825, 22.2845864 ] ] ] } },
{ "type": "Feature", "properties": { "id": "763914523", "name": "奇靈里兒童遊樂場 Ki Ling Lane Children's Playground", "leisure": "playground", "landuse": "nan" }, "geometry": { "type": "Polygon", "coordinates": [ [ [ 114.141639, 22.2876769 ], [ 114.1416212, 22.2871961 ], [ 114.1414496, 22.2872016 ], [ 114.1414674, 22.2876824 ], [ 114.141639, 22.2876769 ] ] ] } },
{ "type": "Feature", "properties": { "id": "817849073", "name": "旭龢道休憩處 Kotewall Road Sitting-Out Area", "leisure": "garden", "landuse": "nan" }, "geometry": { "type": "Polygon", "coordinates": [ [ [ 114.1382593, 22.280317 ], [ 114.1383207, 22.2803394 ], [ 114.1383678, 22.2801769 ], [ 114.1382879, 22.2801465 ], [ 114.1382593, 22.280317 ] ] ] } },
{ "type": "Feature", "properties": { "id": "818043313", "name": "西湖里遊樂場 Sai Woo Lane Playground", "leisure": "park", "landuse": "nan" }, "geometry": { "type": "Polygon", "coordinates": [ [ [ 114.1444518, 22.287055 ], [ 114.1443313, 22.2870022 ], [ 114.1443339, 22.2870709 ], [ 114.1442155, 22.2870746 ], [ 114.1442141, 22.287035 ], [ 114.1440892, 22.2870389 ], [ 114.1439011, 22.2870449 ], [ 114.14392, 22.2875613 ], [ 114.1439542, 22.2875602 ], [ 114.1440597, 22.2875569 ], [ 114.1440826, 22.2875563 ], [ 114.1441082, 22.2875553 ], [ 114.1442565, 22.2875507 ], [ 114.1442602, 22.2876511 ], [ 114.1443322, 22.2876488 ], [ 114.1443681, 22.2876477 ], [ 114.1443568, 22.2873402 ], [ 114.1444052, 22.2873387 ], [ 114.1444952, 22.2873359 ], [ 114.1445153, 22.2873353 ], [ 114.1445088, 22.2871586 ], [ 114.1444917, 22.2871825 ], [ 114.1444227, 22.2872776 ], [ 114.1443928, 22.2872591 ], [ 114.1443634, 22.2872996 ], [ 114.1443021, 22.2872615 ], [ 114.1443315, 22.287221 ], [ 114.1443016, 22.2872024 ], [ 114.1443705, 22.2871073 ], [ 114.1444004, 22.2871259 ], [ 114.144451, 22.2870561 ], [ 114.1444518, 22.287055 ] ] ] } },
{ "type": "Feature", "properties": { "id": "819440225", "name": "nan", "leisure": "garden", "landuse": "nan" }, "geometry": { "type": "Polygon", "coordinates": [ [ [ 114.1423304, 22.2862635 ], [ 114.1423294, 22.2862361 ], [ 114.1423282, 22.2862048 ], [ 114.1433537, 22.2861721 ], [ 114.1433591, 22.2863175 ], [ 114.1432991, 22.2863195 ], [ 114.1432988, 22.2863098 ], [ 114.1432962, 22.2862409 ], [ 114.1428633, 22.2862547 ], [ 114.1424582, 22.2862676 ], [ 114.1424579, 22.2862595 ], [ 114.1424399, 22.2862601 ], [ 114.1423304, 22.2862635 ] ] ] } },
{ "type": "Feature", "properties": { "id": "821891844", "name": "西營盤海濱公園 Sai Ying Pun Harbourfront Park", "leisure": "park", "landuse": "nan" }, "geometry": { "type": "Polygon", "coordinates": [ [ [ 114.1394054, 22.2904186 ], [ 114.1403888, 22.2906658 ], [ 114.141021, 22.2906457 ], [ 114.1436135, 22.2905628 ], [ 114.1436132, 22.2905394 ], [ 114.1436131, 22.2905164 ], [ 114.1436129, 22.2904972 ], [ 114.1436122, 22.2904406 ], [ 114.143611, 22.2903479 ], [ 114.1436107, 22.2903219 ], [ 114.1436104, 22.290298 ], [ 114.1429913, 22.2903192 ], [ 114.1426722, 22.2903302 ], [ 114.1426674, 22.2902996 ], [ 114.1426469, 22.2902983 ], [ 114.1426278, 22.290233 ], [ 114.1426434, 22.2901933 ], [ 114.1426614, 22.2901496 ], [ 114.1426875, 22.2901087 ], [ 114.1427211, 22.2900719 ], [ 114.1426959, 22.2900578 ], [ 114.1426365, 22.2900246 ], [ 114.142565, 22.2899872 ], [ 114.1425378, 22.2900112 ], [ 114.1424259, 22.2901089 ], [ 114.1420506, 22.2903496 ], [ 114.142021, 22.2903483 ], [ 114.1419602, 22.2903842 ], [ 114.141899, 22.2904149 ], [ 114.1418366, 22.2904463 ], [ 114.141744, 22.2904769 ], [ 114.1416765, 22.290494 ], [ 114.1415887, 22.2905056 ], [ 114.1414956, 22.2905212 ], [ 114.1414058, 22.2905363 ], [ 114.1413117, 22.2905473 ], [ 114.1412208, 22.2905535 ], [ 114.1411815, 22.2905501 ], [ 114.1411419, 22.2905468 ], [ 114.1410955, 22.2905406 ], [ 114.1410513, 22.2905348 ], [ 114.1410052, 22.2905261 ], [ 114.1409604, 22.2905177 ], [ 114.1409158, 22.2905064 ], [ 114.1408649, 22.2904934 ], [ 114.1408162, 22.2904721 ], [ 114.1407735, 22.2904534 ], [ 114.1407247, 22.2904245 ], [ 114.1406823, 22.2903994 ], [ 114.1406414, 22.290371 ], [ 114.1406058, 22.2903462 ], [ 114.1405688, 22.2903155 ], [ 114.1405271, 22.2902809 ], [ 114.1404891, 22.2902467 ], [ 114.1404615, 22.2902197 ], [ 114.1404377, 22.2901886 ], [ 114.1404115, 22.2901569 ], [ 114.1403845, 22.2902121 ], [ 114.1403318, 22.290267 ], [ 114.1402718, 22.2902974 ], [ 114.1401804, 22.2903017 ], [ 114.1398256, 22.2902208 ], [ 114.1397539, 22.2902153 ], [ 114.1397039, 22.2902346 ], [ 114.1396715, 22.2902696 ], [ 114.139645, 22.2903115 ], [ 114.1395761, 22.2902939 ], [ 114.1396373, 22.2901131 ], [ 114.1396146, 22.2901053 ], [ 114.1396633, 22.2899676 ], [ 114.1395435, 22.289939 ], [ 114.1394844, 22.2901461 ], [ 114.1394411, 22.2902957 ], [ 114.1394275, 22.2903426 ], [ 114.1394127, 22.2903932 ], [ 114.1394054, 22.2904186 ] ] ] } },
{ "type": "Feature", "properties": { "id": "867550271", "name": "nan", "leisure": "playground", "landuse": "nan" }, "geometry": { "type": "Polygon", "coordinates": [ [ [ 114.1278304, 22.281123 ], [ 114.1279692, 22.2811606 ], [ 114.128007, 22.2810409 ], [ 114.1278682, 22.2810033 ], [ 114.1278304, 22.281123 ] ] ] } },
{ "type": "Feature", "properties": { "id": "1000893877", "name": "nan", "leisure": "nan", "landuse": "recreation_ground" }, "geometry": { "type": "Polygon", "coordinates": [ [ [ 114.1404078, 22.2847172 ], [ 114.1401762, 22.2847265 ], [ 114.1400959, 22.2847297 ], [ 114.1400948, 22.2847066 ], [ 114.140093, 22.2846688 ], [ 114.1400785, 22.2843606 ], [ 114.1403904, 22.284348 ], [ 114.1403986, 22.2845211 ], [ 114.1404078, 22.2847172 ] ] ] } },
{ "type": "Feature", "properties": { "id": "1008051086", "name": "崇慶里兒童遊樂場 Sung Hing Lane Children's Playground", "leisure": "park", "landuse": "nan" }, "geometry": { "type": "Polygon", "coordinates": [ [ [ 114.1429448, 22.2873525 ], [ 114.1429429, 22.2872996 ], [ 114.1427752, 22.2873049 ], [ 114.1427719, 22.2872159 ], [ 114.1427686, 22.287127 ], [ 114.1427682, 22.2871161 ], [ 114.1426545, 22.2871197 ], [ 114.1425445, 22.2871232 ], [ 114.1425534, 22.2873649 ], [ 114.1426634, 22.2873614 ], [ 114.1427701, 22.287358 ], [ 114.1429448, 22.2873525 ] ] ] } },
{ "type": "Feature", "properties": { "id": "1008051087", "name": "梅芳街休憩處 Mui Fong Street Sitting-out Area", "leisure": "park", "landuse": "nan" }, "geometry": { "type": "Polygon", "coordinates": [ [ [ 114.1432954, 22.2872456 ], [ 114.1432909, 22.287122 ], [ 114.1431501, 22.2871265 ], [ 114.1431546, 22.2872501 ], [ 114.1432954, 22.2872456 ] ] ] } },
{ "type": "Feature", "properties": { "id": "1008051088", "name": "梅芳街兒童遊樂場 Mui Fong Street Children's Playground", "leisure": "park", "landuse": "nan" }, "geometry": { "type": "Polygon", "coordinates": [ [ [ 114.1433788, 22.287533 ], [ 114.1434731, 22.28753 ], [ 114.1435269, 22.2875283 ], [ 114.1435118, 22.2871195 ], [ 114.1433638, 22.2871242 ], [ 114.1433788, 22.287533 ] ] ] } },
{ "type": "Feature", "properties": { "id": "1112224127", "name": "nan", "leisure": "playground", "landuse": "nan" }, "geometry": { "type": "Polygon", "coordinates": [ [ [ 114.1300812, 22.2848111 ], [ 114.1300255, 22.2847793 ], [ 114.1299919, 22.2847241 ], [ 114.1299575, 22.2847017 ], [ 114.1300688, 22.2846208 ], [ 114.1300252, 22.2845548 ], [ 114.1298897, 22.2846162 ], [ 114.1298514, 22.284534 ], [ 114.1298736, 22.2844674 ], [ 114.1299464, 22.2844263 ], [ 114.130049, 22.2844369 ], [ 114.1301218, 22.2845134 ], [ 114.1302152, 22.2846453 ], [ 114.1302781, 22.2847169 ], [ 114.1301769, 22.2847268 ], [ 114.1301157, 22.2847679 ], [ 114.1300812, 22.2848111 ] ] ] } },
{ "type": "Feature", "properties": { "id": "1274769925", "name": "正街休憩處 Centre Street Sitting-out Area", "leisure": "garden", "landuse": "nan" }, "geometry": { "type": "Polygon", "coordinates": [ [ [ 114.1421823, 22.2859647 ], [ 114.1421775, 22.2858401 ], [ 114.1420659, 22.2858438 ], [ 114.1420707, 22.2859684 ], [ 114.1421823, 22.2859647 ] ] ] } },
{ "type": "Feature", "properties": { "id": "1275251818", "name": "nan", "leisure": "garden", "landuse": "nan" }, "geometry": { "type": "Polygon", "coordinates": [ [ [ 114.1417266, 22.2854944 ], [ 114.1421586, 22.2854801 ], [ 114.1421576, 22.2854533 ], [ 114.1421541, 22.2853648 ], [ 114.1421538, 22.2853561 ], [ 114.1421535, 22.2853469 ], [ 114.1416886, 22.285363 ], [ 114.1416888, 22.2853711 ], [ 114.141689, 22.2853939 ], [ 114.1416892, 22.2853987 ], [ 114.1416918, 22.285466 ], [ 114.1416924, 22.2854808 ], [ 114.1416929, 22.2854956 ], [ 114.1417266, 22.2854944 ] ] ] } },
{ "type": "Feature", "properties": { "id": "1310811161", "name": "般含道天橋休憩處 Sitting-out Area under Flyover in Bonham Road", "leisure": "garden", "landuse": "nan" }, "geometry": { "type": "Polygon", "coordinates": [ [ [ 114.137635, 22.2847891 ], [ 114.1374816, 22.2847929 ], [ 114.137483, 22.2848414 ], [ 114.1376364, 22.2848376 ], [ 114.137635, 22.2847891 ] ] ] } },
{ "type": "Feature", "properties": { "id": "1331402944", "name": "nan", "leisure": "playground", "landuse": "nan" }, "geometry": { "type": "Polygon", "coordinates": [ [ [ 114.1256941, 22.281284 ], [ 114.1258459, 22.2813105 ], [ 114.1258748, 22.2811683 ], [ 114.1257229, 22.2811419 ], [ 114.1256941, 22.281284 ] ] ] } },
{ "type": "Feature", "properties": { "id": "1523860300", "name": "克頓道休憩處 Hatton Road Sitting-out Area", "leisure": "garden", "landuse": "nan" }, "geometry": { "type": "Polygon", "coordinates": [ [ [ 114.1385116, 22.2787918 ], [ 114.1385138, 22.2787377 ], [ 114.1385264, 22.2786636 ], [ 114.138549, 22.278617 ], [ 114.1385349, 22.2785433 ], [ 114.1385735, 22.2785447 ], [ 114.1385977, 22.2785678 ], [ 114.1385998, 22.27858 ], [ 114.1386088, 22.2785893 ], [ 114.1386326, 22.2786388 ], [ 114.1386346, 22.2786445 ], [ 114.1386331, 22.2786533 ], [ 114.1386448, 22.2786538 ], [ 114.1386462, 22.2787167 ], [ 114.1386669, 22.2787165 ], [ 114.138672, 22.278773 ], [ 114.1385653, 22.2787826 ], [ 114.1385116, 22.2787918 ] ] ] } },
{ "type": "Feature", "properties": { "id": "1523860301", "name": "龍虎山休憩處 Lung Fu Shan Sitting-out Area", "leisure": "garden", "landuse": "nan" }, "geometry": { "type": "Polygon", "coordinates": [ [ [ 114.1384975, 22.2786141 ], [ 114.1384995, 22.2785784 ], [ 114.1384552, 22.2785763 ], [ 114.1384532, 22.278612 ], [ 114.1384975, 22.2786141 ] ] ] } }
]
}
