{
"type": "FeatureCollection",
"name": "grocery",
"crs": { "type": "name", "properties": { "name": "urn:ogc:def:crs:OGC:1.3:CRS84" } },
"features": [
{ "type": "Feature", "properties": { "id": "579166058", "name": "7-Eleven", "shop": "convenience", "building": "nan" }, "geometry": { "type": "Point", "coordinates": [ 114.1411993, 22.2848665 ] } },
{ "type": "Feature", "properties": { "id": "579167930", "name": "International by PARKnSHOP", "shop": "supermarket", "building": "nan" }, "geometry": { "type": "Point", "coordinates": [ 114.1418465, 22.284723 ] } },
{ "type": "Feature", "properties": { "id": "1280317651", "name": "7-Eleven", "shop": "convenience", "building": "nan" }, "geometry": { "type": "Point", "coordinates": [ 114.1365719, 22.2863827 ] } },
{ "type": "Feature", "properties": { "id": "1298704926", "name": "惠康 Wellcome", "shop": "supermarket", "building": "nan" }, "geometry": { "type": "Point", "coordinates": [ 114.1437079, 22.2841642 ] } },
{ "type": "Feature", "properties": { "id": "2037708275", "name": "惠康 Wellcome", "shop": "supermarket", "building": "nan" }, "geometry": { "type": "Point", "coordinates": [ 114.1421147, 22.2865866 ] } },
{ "type": "Feature", "properties": { "id": "2092498560", "name": "7-Eleven", "shop": "convenience", "building": "nan" }, "geometry": { "type": "Point", "coordinates": [ 114.1445921, 22.2878981 ] } },
{ "type": "Feature", "properties": { "id": "2523472018", "name": "华润万家", "shop": "supermarket", "building": "nan" }, "geometry": { "type": "Point", "coordinates": [ 114.1404998, 22.2856439 ] } },
{ "type": "Feature", "properties": { "id": "3125709385", "name": "惠康 Wellcome", "shop": "supermarket", "building": "nan" }, "geometry": { "type": "Point", "coordinates": [ 114.1293894, 22.2827205 ] } },
{ "type": "Feature", "properties": { "id": "3125709386", "name": "惠康 Wellcome", "shop": "supermarket", "building": "nan" }, "geometry": { "type": "Point", "coordinates": [ 114.1337245, 22.2863218 ] } },
{ "type": "Feature", "properties": { "id": "3125709388", "name": "惠康 Wellcome", "shop": "supermarket", "building": "nan" }, "geometry": { "type": "Point", "coordinates": [ 114.126026, 22.2821128 ] } },
{ "type": "Feature", "properties": { "id": "3125709389", "name": "惠康 Wellcome", "shop": "supermarket", "building": "nan" }, "geometry": { "type": "Point", "coordinates": [ 114.1414186, 22.2877889 ] } },
{ "type": "Feature", "properties": { "id": "3125709391", "name": "惠康 Wellcome", "shop": "supermarket", "building": "nan" }, "geometry": { "type": "Point", "coordinates": [ 114.1332927, 22.2849485 ] } },
{ "type": "Feature", "properties": { "id": "3276860389", "name": "旬屋 Shun Ya", "shop": "supermarket", "building": "nan" }, "geometry": { "type": "Point", "coordinates": [ 114.1312976, 22.2843412 ] } },
{ "type": "Feature", "properties": { "id": "3937121772", "name": "nan", "shop": "supermarket", "building": "nan" }, "geometry": { "type": "Point", "coordinates": [ 114.1391599, 22.2826415 ] } },
{ "type": "Feature", "properties": { "id": "4116103528", "name": "惠康 Wellcome", "shop": "supermarket", "building": "nan" }, "geometry": { "type": "Point", "coordinates": [ 114.1287446, 22.280817 ] } },
{ "type": "Feature", "properties": { "id": "4116103533", "name": "7-Eleven", "shop": "convenience", "building": "nan" }, "geometry": { "type": "Point", "coordinates": [ 114.1278849, 22.2806969 ] } },
{ "type": "Feature", "properties": { "id": "4116132390", "name": "百佳 PARKnSHOP", "shop": "supermarket", "building": "nan" }, "geometry": { "type": "Point", "coordinates": [ 114.1407118, 22.2880755 ] } },
{ "type": "Feature", "properties": { "id": "4116132392", "name": "7-Eleven", "shop": "convenience", "building": "nan" }, "geometry": { "type": "Point", "coordinates": [ 114.138711, 22.2872913 ] } },
{ "type": "Feature", "properties": { "id": "4128170388", "name": "Market Place by Jasons", "shop": "supermarket", "building": "nan" }, "geometry": { "type": "Point", "coordinates": [ 114.1426508, 22.2862923 ] } },
{ "type": "Feature", "properties": { "id": "4848432326", "name": "7-Eleven", "shop": "convenience", "building": "nan" }, "geometry": { "type": "Point", "coordinates": [ 114.1387729, 22.2857799 ] } },
{ "type": "Feature", "properties": { "id": "4862057457", "name": "U購Select U Select", "shop": "supermarket", "building": "nan" }, "geometry": { "type": "Point", "coordinates": [ 114.1374063, 22.2869382 ] } },
{ "type": "Feature", "properties": { "id": "4862113242", "name": "759", "shop": "convenience", "building": "nan" }, "geometry": { "type": "Point", "coordinates": [ 114.1375858, 22.2872421 ] } },
{ "type": "Feature", "properties": { "id": "4862113249", "name": "OK便利店 Circle K", "shop": "convenience", "building": "nan" }, "geometry": { "type": "Point", "coordinates": [ 114.1386245, 22.2875405 ] } },
{ "type": "Feature", "properties": { "id": "4862122128", "name": "7-Eleven", "shop": "convenience", "building": "nan" }, "geometry": { "type": "Point", "coordinates": [ 114.139557, 22.2876933 ] } },
{ "type": "Feature", "properties": { "id": "4862556858", "name": "759阿信屋 759 Store", "shop": "convenience", "building": "nan" }, "geometry": { "type": "Point", "coordinates": [ 114.1384082, 22.2865696 ] } },
{ "type": "Feature", "properties": { "id": "4862556869", "name": "Ameyokocho", "shop": "convenience", "building": "nan" }, "geometry": { "type": "Point", "coordinates": [ 114.1364355, 22.2859148 ] } },
{ "type": "Feature", "properties": { "id": "4862556871", "name": "Fresh Everyday", "shop": "greengrocer", "building": "nan" }, "geometry": { "type": "Point", "coordinates": [ 114.1360338, 22.2859845 ] } },
{ "type": "Feature", "properties": { "id": "4862580147", "name": "7-Eleven", "shop": "convenience", "building": "nan" }, "geometry": { "type": "Point", "coordinates": [ 114.1337415, 22.2865602 ] } },
{ "type": "Feature", "properties": { "id": "4862580155", "name": "星光市場 Star Mart", "shop": "supermarket", "building": "nan" }, "geometry": { "type": "Point", "coordinates": [ 114.132591, 22.2863764 ] } },
{ "type": "Feature", "properties": { "id": "4862618394", "name": "7-Eleven", "shop": "convenience", "building": "nan" }, "geometry": { "type": "Point", "coordinates": [ 114.138741, 22.286443 ] } },
{ "type": "Feature", "properties": { "id": "4862618395", "name": "通泰超級市場 Tung Tai Supermarket", "shop": "supermarket", "building": "nan" }, "geometry": { "type": "Point", "coordinates": [ 114.138572, 22.286406 ] } },
{ "type": "Feature", "properties": { "id": "4862618396", "name": "惠康 Wellcome", "shop": "supermarket", "building": "nan" }, "geometry": { "type": "Point", "coordinates": [ 114.1357524, 22.2858637 ] } },
{ "type": "Feature", "properties": { "id": "4862618397", "name": "優品360 Best Mart 360", "shop": "convenience", "building": "nan" }, "geometry": { "type": "Point", "coordinates": [ 114.13557, 22.2859051 ] } },
{ "type": "Feature", "properties": { "id": "4862626537", "name": "大生生活超市 DS Groceries", "shop": "supermarket", "building": "nan" }, "geometry": { "type": "Point", "coordinates": [ 114.130981, 22.2838517 ] } },
{ "type": "Feature", "properties": { "id": "4862626538", "name": "7-Eleven", "shop": "convenience", "building": "nan" }, "geometry": { "type": "Point", "coordinates": [ 114.130904, 22.2837777 ] } },
{ "type": "Feature", "properties": { "id": "4862637029", "name": "7-Eleven", "shop": "convenience", "building": "nan" }, "geometry": { "type": "Point", "coordinates": [ 114.1289892, 22.2826641 ] } },
{ "type": "Feature", "properties": { "id": "4862637035", "name": "7-Eleven", "shop": "convenience", "building": "nan" }, "geometry": { "type": "Point", "coordinates": [ 114.1283934, 22.2821844 ] } },
{ "type": "Feature", "properties": { "id": "4870025962", "name": "7-Eleven", "shop": "convenience", "building": "nan" }, "geometry": { "type": "Point", "coordinates": [ 114.1282511, 22.2815987 ] } },
{ "type": "Feature", "properties": { "id": "4870025963", "name": "OK便利店 Circle K", "shop": "convenience", "building": "nan" }, "geometry": { "type": "Point", "coordinates": [ 114.1269723, 22.2823005 ] } },
{ "type": "Feature", "properties": { "id": "4870047894", "name": "森永大藥房 Worthy Dispensary", "shop": "convenience", "building": "nan" }, "geometry": { "type": "Point", "coordinates": [ 114.1386272, 22.2877372 ] } },
{ "type": "Feature", "properties": { "id": "4870058231", "name": "OK便利店 Circle K", "shop": "convenience", "building": "nan" }, "geometry": { "type": "Point", "coordinates": [ 114.1291641, 22.2833691 ] } },
{ "type": "Feature", "properties": { "id": "4870091585", "name": "Fusion", "shop": "supermarket", "building": "nan" }, "geometry": { "type": "Point", "coordinates": [ 114.1272681, 22.2832406 ] } },
{ "type": "Feature", "properties": { "id": "4870132720", "name": "大生生活超市 DS Groceries", "shop": "supermarket", "building": "nan" }, "geometry": { "type": "Point", "coordinates": [ 114.1352709, 22.2867536 ] } },
{ "type": "Feature", "properties": { "id": "4870132927", "name": "Kin Hing Hong co", "shop": "convenience", "building": "nan" }, "geometry": { "type": "Point", "coordinates": [ 114.1313245, 22.284997 ] } },
{ "type": "Feature", "properties": { "id": "4870132929", "name": "Hing Tat Trading", "shop": "convenience", "building": "nan" }, "geometry": { "type": "Point", "coordinates": [ 114.1311991, 22.2848897 ] } },
{ "type": "Feature", "properties": { "id": "4870132934", "name": "Free Market", "shop": "convenience", "building": "nan" }, "geometry": { "type": "Point", "coordinates": [ 114.1299047, 22.2838481 ] } },
{ "type": "Feature", "properties": { "id": "5283275438", "name": "百佳 PARKnSHOP", "shop": "supermarket", "building": "nan" }, "geometry": { "type": "Point", "coordinates": [ 114.130642, 22.2840693 ] } },
{ "type": "Feature", "properties": { "id": "5653670117", "name": "Live Zero", "shop": "convenience", "building": "nan" }, "geometry": { "type": "Point", "coordinates": [ 114.1425717, 22.2850969 ] } },
{ "type": "Feature", "properties": { "id": "5824533200", "name": "OK便利店 Circle K", "shop": "convenience", "building": "nan" }, "geometry": { "type": "Point", "coordinates": [ 114.1301507, 22.2834063 ] } },
{ "type": "Feature", "properties": { "id": "6183613879", "name": "7-Eleven", "shop": "convenience", "building": "nan" }, "geometry": { "type": "Point", "coordinates": [ 114.1283583, 22.2811274 ] } },
{ "type": "Feature", "properties": { "id": "6183614044", "name": "7-Eleven", "shop": "convenience", "building": "nan" }, "geometry": { "type": "Point", "coordinates": [ 114.1287996, 22.2811993 ] } },
{ "type": "Feature", "properties": { "id": "6187953341", "name": "百佳 PARKnSHOP", "shop": "supermarket", "building": "nan" }, "geometry": { "type": "Point", "coordinates": [ 114.127823, 22.2817212 ] } },
{ "type": "Feature", "properties": { "id": "6463442685", "name": "金源公司", "shop": "convenience", "building": "nan" }, "geometry": { "type": "Point", "coordinates": [ 114.1443606, 22.2868867 ] } },
{ "type": "Feature", "properties": { "id": "6821496612", "name": "佳宝食品超級市場 Kai Bo Food Supermarket", "shop": "supermarket", "building": "nan" }, "geometry": { "type": "Point", "coordinates": [ 114.1426578, 22.2857112 ] } },
{ "type": "Feature", "properties": { "id": "6849035143", "name": "大昌食品專門店 Dch Food Mart Deluxe", "shop": "supermarket", "building": "nan" }, "geometry": { "type": "Point", "coordinates": [ 114.1416179, 22.2861407 ] } },
{ "type": "Feature", "properties": { "id": "8490943552", "name": "Slowood", "shop": "supermarket", "building": "nan" }, "geometry": { "type": "Point", "coordinates": [ 114.127185, 22.2815164 ] } },
{ "type": "Feature", "properties": { "id": "8999689180", "name": "7-Eleven", "shop": "convenience", "building": "nan" }, "geometry": { "type": "Point", "coordinates": [ 114.1269994, 22.2826911 ] } },
{ "type": "Feature", "properties": { "id": "8999689181", "name": "7-Eleven", "shop": "convenience", "building": "nan" }, "geometry": { "type": "Point", "coordinates": [ 114.1282398, 22.2820126 ] } },
{ "type": "Feature", "properties": { "id": "8999689182", "name": "7-Eleven", "shop": "convenience", "building": "nan" }, "geometry": { "type": "Point", "coordinates": [ 114.1273946, 22.2823621 ] } },
{ "type": "Feature", "properties": { "id": "9171211113", "name": "7-Eleven", "shop": "convenience", "building": "nan" }, "geometry": { "type": "Point", "coordinates": [ 114.1350081, 22.2857773 ] } },
{ "type": "Feature", "properties": { "id": "9720055485", "name": "Yata", "shop": "supermarket", "building": "nan" }, "geometry": { "type": "Point", "coordinates": [ 114.1357524, 22.2868839 ] } },
{ "type": "Feature", "properties": { "id": "11090962234", "name": "7-Eleven", "shop": "convenience", "building": "nan" }, "geometry": { "type": "Point", "coordinates": [ 114.1433284, 22.2867945 ] } },
{ "type": "Feature", "properties": { "id": "11090962238", "name": "OK便利店 Circle K", "shop": "convenience", "building": "nan" }, "geometry": { "type": "Point", "coordinates": [ 114.1421486, 22.2877975 ] } },
{ "type": "Feature", "properties": { "id": "11752363006", "name": "實惠 PRICERITE", "shop": "supermarket", "building": "nan" }, "geometry": { "type": "Point", "coordinates": [ 114.1273465, 22.2821916 ] } },
{ "type": "Feature", "properties": { "id": "11834299020", "name": "大生生活超市 DS Groceries", "shop": "supermarket", "building": "nan" }, "geometry": { "type": "Point", "coordinates": [ 114.1410423, 22.2847795 ] } },
{ "type": "Feature", "properties": { "id": "12505636255", "name": "大生生活超市 DS Groceries", "shop": "supermarket", "building": "nan" }, "geometry": { "type": "Point", "coordinates": [ 114.142005, 22.2878047 ] } },
{ "type": "Feature", "properties": { "id": "12566653793", "name": "OK便利店 Circle K", "shop": "convenience", "building": "nan" }, "geometry": { "type": "Point", "coordinates": [ 114.1428696, 22.2844551 ] } },
{ "type": "Feature", "properties": { "id": "12579188979", "name": "7-Eleven", "shop": "convenience", "building": "nan" }, "geometry": { "type": "Point", "coordinates": [ 114.1421494, 22.285606 ] } },
{ "type": "Feature", "properties": { "id": "13076932513", "name": "佳宝食品超級市場 Kai Bo Food Supermarket", "shop": "supermarket", "building": "nan" }, "geometry": { "type": "Point", "coordinates": [ 114.1367337, 22.2855755 ] } },
{ "type": "Feature", "properties": { "id": "13865049581", "name": "759阿信屋 759 Store", "shop": "convenience", "building": "nan" }, "geometry": { "type": "Point", "coordinates": [ 114.1352505, 22.2858944 ] } },
{ "type": "Feature", "properties": { "id": "762788090", "name": "uSmile 昆仑好客", "shop": "convenience", "building": "retail" }, "geometry": { "type": "Polygon", "coordinates": [ [ [ 114.1325399, 22.2816763 ], [ 114.1325126, 22.2816347 ], [ 114.1325504, 22.2816134 ], [ 114.1325778, 22.281655 ], [ 114.1325399, 22.2816763 ] ] ] } }
]
}
