{
"type": "FeatureCollection",
"name": "transit",
"crs": { "type": "name", "properties": { "name": "urn:ogc:def:crs:OGC:1.3:CRS84" } },
"features": [
{ "type": "Feature", "properties": { "id": "345538797", "name": "何東夫人堂 Lady Ho Tung Hall", "highway": "bus_stop", "railway": "nan", "building": "nan" }, "geometry": { "type": "Point", "coordinates": [ 114.1329671, 22.2836313 ] } },
{ "type": "Feature", "properties": { "id": "356132283", "name": "寧養台 Ning Yeung Terrace", "highway": "bus_stop", "railway": "nan", "building": "nan" }, "geometry": { "type": "Point", "coordinates": [ 114.14117, 22.284827 ] } },
{ "type": "Feature", "properties": { "id": "356132336", "name": "聖士提反堂中學 St. Stephen's Church College", "highway": "bus_stop", "railway": "nan", "building": "nan" }, "geometry": { "type": "Point", "coordinates": [ 114.1384425, 22.2853091 ] } },
{ "type": "Feature", "properties": { "id": "356132375", "name": "李陞小學 Li Sing Primary School", "highway": "bus_stop", "railway": "nan", "building": "nan" }, "geometry": { "type": "Point", "coordinates": [ 114.1399314, 22.2854585 ] } },
{ "type": "Feature", "properties": { "id": "356132448", "name": "西營盤郵政局 Sai Ying Pun Post Office", "highway": "bus_stop", "railway": "nan", "building": "nan" }, "geometry": { "type": "Point", "coordinates": [ 114.1399758, 22.2860488 ] } },
{ "type": "Feature", "properties": { "id": "356277238", "name": "聖士提反女子中學 St. Stephen's Girls' College", "highway": "bus_stop", "railway": "nan", "building": "nan" }, "geometry": { "type": "Point", "coordinates": [ 114.14339, 22.283922 ] } },
{ "type": "Feature", "properties": { "id": "356277254", "name": "第二街 Second Street", "highway": "bus_stop", "railway": "nan", "building": "nan" }, "geometry": { "type": "Point", "coordinates": [ 114.13944, 22.286209 ] } },
{ "type": "Feature", "properties": { "id": "356277255", "name": "香港大學東閘 HKU East Gate", "highway": "bus_stop", "railway": "nan", "building": "nan" }, "geometry": { "type": "Point", "coordinates": [ 114.138633, 22.28402 ] } },
{ "type": "Feature", "properties": { "id": "356277268", "name": "正街 Centre Street", "highway": "bus_stop", "railway": "nan", "building": "nan" }, "geometry": { "type": "Point", "coordinates": [ 114.1422608, 22.2843871 ] } },
{ "type": "Feature", "properties": { "id": "356624241", "name": "香港潮商學校 Chiu Sheung School Hong Kong", "highway": "bus_stop", "railway": "nan", "building": "nan" }, "geometry": { "type": "Point", "coordinates": [ 114.1360271, 22.283632 ] } },
{ "type": "Feature", "properties": { "id": "356624491", "name": "東邊街 Eastern Street", "highway": "bus_stop", "railway": "nan", "building": "nan" }, "geometry": { "type": "Point", "coordinates": [ 114.144373, 22.28422 ] } },
{ "type": "Feature", "properties": { "id": "356624735", "name": "豫苑 Euston Court", "highway": "bus_stop", "railway": "nan", "building": "nan" }, "geometry": { "type": "Point", "coordinates": [ 114.14509, 22.284862 ] } },
{ "type": "Feature", "properties": { "id": "356670965", "name": "水街 Water Street", "highway": "bus_stop", "railway": "nan", "building": "nan" }, "geometry": { "type": "Point", "coordinates": [ 114.1386747, 22.2876948 ] } },
{ "type": "Feature", "properties": { "id": "356671063", "name": "西區警署 Western Police Station", "highway": "bus_stop", "railway": "nan", "building": "nan" }, "geometry": { "type": "Point", "coordinates": [ 114.1403633, 22.2879896 ] } },
{ "type": "Feature", "properties": { "id": "356671169", "name": "高樂花園 Connaught Garden", "highway": "bus_stop", "railway": "nan", "building": "nan" }, "geometry": { "type": "Point", "coordinates": [ 114.14167, 22.28853 ] } },
{ "type": "Feature", "properties": { "id": "356671403", "name": "正街 Centre Street", "highway": "bus_stop", "railway": "nan", "building": "nan" }, "geometry": { "type": "Point", "coordinates": [ 114.141745, 22.2880237 ] } },
{ "type": "Feature", "properties": { "id": "356671656", "name": "水街 Water Street", "highway": "bus_stop", "railway": "nan", "building": "nan" }, "geometry": { "type": "Point", "coordinates": [ 114.1381715, 22.2871966 ] } },
{ "type": "Feature", "properties": { "id": "356671659", "name": "均益大廈第二期 Kwan Yick Building Phase II", "highway": "bus_stop", "railway": "nan", "building": "nan" }, "geometry": { "type": "Point", "coordinates": [ 114.13786, 22.287281 ] } },
{ "type": "Feature", "properties": { "id": "356671784", "name": "嘉安街 Ka On Street", "highway": "bus_stop", "railway": "nan", "building": "nan" }, "geometry": { "type": "Point", "coordinates": [ 114.137098, 22.2870675 ] } },
{ "type": "Feature", "properties": { "id": "356671867", "name": "石塘咀市政大廈 Shek Tong Tsui Complex", "highway": "bus_stop", "railway": "nan", "building": "nan" }, "geometry": { "type": "Point", "coordinates": [ 114.1355989, 22.2859552 ] } },
{ "type": "Feature", "properties": { "id": "356671907", "name": "東邊街 Eastern Street", "highway": "bus_stop", "railway": "nan", "building": "nan" }, "geometry": { "type": "Point", "coordinates": [ 114.14436, 22.2879345 ] } },
{ "type": "Feature", "properties": { "id": "366080837", "name": "卑路乍灣公園 Belcher Bay Park", "highway": "bus_stop", "railway": "nan", "building": "nan" }, "geometry": { "type": "Point", "coordinates": [ 114.1301014, 22.2843131 ] } },
{ "type": "Feature", "properties": { "id": "560843946", "name": "堅尼地城游泳池 Kennedy Town Swimming Pool", "highway": "bus_stop", "railway": "nan", "building": "nan" }, "geometry": { "type": "Point", "coordinates": [ 114.1317676, 22.2854978 ] } },
{ "type": "Feature", "properties": { "id": "1367769071", "name": "加多近街 Cadogan Street", "highway": "bus_stop", "railway": "nan", "building": "nan" }, "geometry": { "type": "Point", "coordinates": [ 114.1259, 22.28275 ] } },
{ "type": "Feature", "properties": { "id": "1442832560", "name": "蒲飛路 Pokfield Road", "highway": "bus_stop", "railway": "nan", "building": "nan" }, "geometry": { "type": "Point", "coordinates": [ 114.1321743, 22.2818617 ] } },
{ "type": "Feature", "properties": { "id": "1442832564", "name": "香港大學西閘 HKU West Gate", "highway": "bus_stop", "railway": "nan", "building": "nan" }, "geometry": { "type": "Point", "coordinates": [ 114.1358026, 22.2835122 ] } },
{ "type": "Feature", "properties": { "id": "1442832588", "name": "何東夫人堂 Lady Ho Tung Hall", "highway": "bus_stop", "railway": "nan", "building": "nan" }, "geometry": { "type": "Point", "coordinates": [ 114.1334481, 22.283801 ] } },
{ "type": "Feature", "properties": { "id": "1442832596", "name": "英皇書院 King's College", "highway": "bus_stop", "railway": "nan", "building": "nan" }, "geometry": { "type": "Point", "coordinates": [ 114.1397151, 22.2842987 ] } },
{ "type": "Feature", "properties": { "id": "1442838627", "name": "豫苑 Euston Court", "highway": "bus_stop", "railway": "nan", "building": "nan" }, "geometry": { "type": "Point", "coordinates": [ 114.14471, 22.284397 ] } },
{ "type": "Feature", "properties": { "id": "1953259331", "name": "西區警署 Western Police Station", "highway": "bus_stop", "railway": "nan", "building": "nan" }, "geometry": { "type": "Point", "coordinates": [ 114.139772, 22.287802 ] } },
{ "type": "Feature", "properties": { "id": "2034393920", "name": "蒲飛路 Pokfield Road", "highway": "bus_stop", "railway": "nan", "building": "nan" }, "geometry": { "type": "Point", "coordinates": [ 114.132431, 22.2819776 ] } },
{ "type": "Feature", "properties": { "id": "2034393936", "name": "香港大學百周年校園 HKU Centennial Campus", "highway": "bus_stop", "railway": "nan", "building": "nan" }, "geometry": { "type": "Point", "coordinates": [ 114.1349168, 22.2843138 ] } },
{ "type": "Feature", "properties": { "id": "2091077133", "name": "日富里 Yat Fu Lane", "highway": "bus_stop", "railway": "nan", "building": "nan" }, "geometry": { "type": "Point", "coordinates": [ 114.133563, 22.286413 ] } },
{ "type": "Feature", "properties": { "id": "2091078428", "name": "旭龢道 Kotewall Road", "highway": "bus_stop", "railway": "nan", "building": "nan" }, "geometry": { "type": "Point", "coordinates": [ 114.140225, 22.2812359 ] } },
{ "type": "Feature", "properties": { "id": "2613523823", "name": "安利別墅 On Lee", "highway": "bus_stop", "railway": "nan", "building": "nan" }, "geometry": { "type": "Point", "coordinates": [ 114.1291609, 22.2754034 ] } },
{ "type": "Feature", "properties": { "id": "2613523831", "name": "安利別墅 On Lee", "highway": "bus_stop", "railway": "nan", "building": "nan" }, "geometry": { "type": "Point", "coordinates": [ 114.1293692, 22.2758588 ] } },
{ "type": "Feature", "properties": { "id": "3005302602", "name": "克頓道 Hatton Road", "highway": "bus_stop", "railway": "nan", "building": "nan" }, "geometry": { "type": "Point", "coordinates": [ 114.1399741, 22.2811031 ] } },
{ "type": "Feature", "properties": { "id": "3141193026", "name": "正街 Centre Street", "highway": "bus_stop", "railway": "nan", "building": "nan" }, "geometry": { "type": "Point", "coordinates": [ 114.14172, 22.28786 ] } },
{ "type": "Feature", "properties": { "id": "3141193027", "name": "正街 Centre Street", "highway": "bus_stop", "railway": "nan", "building": "nan" }, "geometry": { "type": "Point", "coordinates": [ 114.14196, 22.288017 ] } },
{ "type": "Feature", "properties": { "id": "3141193028", "name": "正街 Centre Street", "highway": "bus_stop", "railway": "nan", "building": "nan" }, "geometry": { "type": "Point", "coordinates": [ 114.14193, 22.2880179 ] } },
{ "type": "Feature", "properties": { "id": "3141194029", "name": "正街 Centre Street", "highway": "bus_stop", "railway": "nan", "building": "nan" }, "geometry": { "type": "Point", "coordinates": [ 114.14176, 22.2880232 ] } },
{ "type": "Feature", "properties": { "id": "3141194031", "name": "東邊街 Eastern Street", "highway": "bus_stop", "railway": "nan", "building": "nan" }, "geometry": { "type": "Point", "coordinates": [ 114.14415, 22.287941 ] } },
{ "type": "Feature", "properties": { "id": "3141194032", "name": "山道 Hill Road", "highway": "bus_stop", "railway": "nan", "building": "nan" }, "geometry": { "type": "Point", "coordinates": [ 114.1361066, 22.2866203 ] } },
{ "type": "Feature", "properties": { "id": "3141194033", "name": "山道 Hill Road", "highway": "bus_stop", "railway": "nan", "building": "nan" }, "geometry": { "type": "Point", "coordinates": [ 114.1344468, 22.2872024 ] } },
{ "type": "Feature", "properties": { "id": "3141194034", "name": "山道 Hill Road", "highway": "bus_stop", "railway": "nan", "building": "nan" }, "geometry": { "type": "Point", "coordinates": [ 114.1342703, 22.2872375 ] } },
{ "type": "Feature", "properties": { "id": "3141194035", "name": "山道 Hill Road", "highway": "bus_stop", "railway": "nan", "building": "nan" }, "geometry": { "type": "Point", "coordinates": [ 114.1342578, 22.28724 ] } },
{ "type": "Feature", "properties": { "id": "3141194037", "name": "嘉安街 Ka On Street", "highway": "bus_stop", "railway": "nan", "building": "nan" }, "geometry": { "type": "Point", "coordinates": [ 114.1369638, 22.2870295 ] } },
{ "type": "Feature", "properties": { "id": "3141194039", "name": "均益大廈第二期 Kwan Yick Building Phase II", "highway": "bus_stop", "railway": "nan", "building": "nan" }, "geometry": { "type": "Point", "coordinates": [ 114.137692, 22.2872342 ] } },
{ "type": "Feature", "properties": { "id": "3141194040", "name": "均益大廈第二期 Kwan Yick Building Phase II", "highway": "bus_stop", "railway": "nan", "building": "nan" }, "geometry": { "type": "Point", "coordinates": [ 114.137848, 22.2872777 ] } },
{ "type": "Feature", "properties": { "id": "3141194052", "name": "水街 Water Street", "highway": "bus_stop", "railway": "nan", "building": "nan" }, "geometry": { "type": "Point", "coordinates": [ 114.1381257, 22.2871843 ] } },
{ "type": "Feature", "properties": { "id": "3141194053", "name": "水街 Water Street", "highway": "bus_stop", "railway": "nan", "building": "nan" }, "geometry": { "type": "Point", "coordinates": [ 114.1386585, 22.2877472 ] } },
{ "type": "Feature", "properties": { "id": "3141194056", "name": "西區警署 Western Police Station", "highway": "bus_stop", "railway": "nan", "building": "nan" }, "geometry": { "type": "Point", "coordinates": [ 114.1402221, 22.2879503 ] } },
{ "type": "Feature", "properties": { "id": "3141194057", "name": "西區警署 Western Police Station", "highway": "bus_stop", "railway": "nan", "building": "nan" }, "geometry": { "type": "Point", "coordinates": [ 114.1402445, 22.2879566 ] } },
{ "type": "Feature", "properties": { "id": "3141194058", "name": "西區警署 Western Police Station", "highway": "bus_stop", "railway": "nan", "building": "nan" }, "geometry": { "type": "Point", "coordinates": [ 114.1403283, 22.2879799 ] } },
{ "type": "Feature", "properties": { "id": "3147115815", "name": "爹核士街 Davis Street", "highway": "bus_stop", "railway": "nan", "building": "nan" }, "geometry": { "type": "Point", "coordinates": [ 114.1271417, 22.2831734 ] } },
{ "type": "Feature", "properties": { "id": "3147117608", "name": "堅尼地城游泳池休憩處 Kennedy Town Swimming Pool Sitting-out Area", "highway": "bus_stop", "railway": "nan", "building": "nan" }, "geometry": { "type": "Point", "coordinates": [ 114.1326411, 22.2872799 ] } },
{ "type": "Feature", "properties": { "id": "3147118129", "name": "歌連臣街 Collinson Street", "highway": "bus_stop", "railway": "nan", "building": "nan" }, "geometry": { "type": "Point", "coordinates": [ 114.1320104, 22.2863678 ] } },
{ "type": "Feature", "properties": { "id": "3180380844", "name": "卑路乍灣公園 Belcher Bay Park", "highway": "bus_stop", "railway": "nan", "building": "nan" }, "geometry": { "type": "Point", "coordinates": [ 114.1300124, 22.2842411 ] } },
{ "type": "Feature", "properties": { "id": "3180380845", "name": "爹核士街 Davis Street", "highway": "bus_stop", "railway": "nan", "building": "nan" }, "geometry": { "type": "Point", "coordinates": [ 114.1272569, 22.2831931 ] } },
{ "type": "Feature", "properties": { "id": "3180380846", "name": "爹核士街 Davis Street", "highway": "bus_stop", "railway": "nan", "building": "nan" }, "geometry": { "type": "Point", "coordinates": [ 114.1273841, 22.2832148 ] } },
{ "type": "Feature", "properties": { "id": "3180380847", "name": "爹核士街 Davis Street", "highway": "bus_stop", "railway": "nan", "building": "nan" }, "geometry": { "type": "Point", "coordinates": [ 114.1275076, 22.2832359 ] } },
{ "type": "Feature", "properties": { "id": "3180380848", "name": "士美菲路 Smithfield", "highway": "bus_stop", "railway": "nan", "building": "nan" }, "geometry": { "type": "Point", "coordinates": [ 114.1284172, 22.2833884 ] } },
{ "type": "Feature", "properties": { "id": "3180380849", "name": "科士街 Forbes Street", "highway": "bus_stop", "railway": "nan", "building": "nan" }, "geometry": { "type": "Point", "coordinates": [ 114.1282736, 22.2811519 ] } },
{ "type": "Feature", "properties": { "id": "3180380851", "name": "荷蘭街 Holland Street", "highway": "bus_stop", "railway": "nan", "building": "nan" }, "geometry": { "type": "Point", "coordinates": [ 114.1307797, 22.2844557 ] } },
{ "type": "Feature", "properties": { "id": "3180380856", "name": "聯邦新樓 Luen Bong Apartment", "highway": "bus_stop", "railway": "nan", "building": "nan" }, "geometry": { "type": "Point", "coordinates": [ 114.1274858, 22.2824352 ] } },
{ "type": "Feature", "properties": { "id": "3180380857", "name": "聯邦新樓 Luen Bong Apartment", "highway": "bus_stop", "railway": "nan", "building": "nan" }, "geometry": { "type": "Point", "coordinates": [ 114.1275031, 22.2824382 ] } },
{ "type": "Feature", "properties": { "id": "3180380858", "name": "聯邦新樓 Luen Bong Apartment", "highway": "bus_stop", "railway": "nan", "building": "nan" }, "geometry": { "type": "Point", "coordinates": [ 114.1276204, 22.2824585 ] } },
{ "type": "Feature", "properties": { "id": "3180380859", "name": "聯邦新樓 Luen Bong Apartment", "highway": "bus_stop", "railway": "nan", "building": "nan" }, "geometry": { "type": "Point", "coordinates": [ 114.1274187, 22.2824236 ] } },
{ "type": "Feature", "properties": { "id": "3180387161", "name": "北街 North Street", "highway": "bus_stop", "railway": "nan", "building": "nan" }, "geometry": { "type": "Point", "coordinates": [ 114.1285944, 22.2826238 ] } },
{ "type": "Feature", "properties": { "id": "3180387163", "name": "西祥街 Sai Cheung Street", "highway": "bus_stop", "railway": "nan", "building": "nan" }, "geometry": { "type": "Point", "coordinates": [ 114.1319013, 22.2848955 ] } },
{ "type": "Feature", "properties": { "id": "3180387167", "name": "山市街 Sands Street", "highway": "bus_stop", "railway": "nan", "building": "nan" }, "geometry": { "type": "Point", "coordinates": [ 114.1307485, 22.28371 ] } },
{ "type": "Feature", "properties": { "id": "3180387168", "name": "山市街 Sands Street", "highway": "bus_stop", "railway": "nan", "building": "nan" }, "geometry": { "type": "Point", "coordinates": [ 114.130405, 22.2843403 ] } },
{ "type": "Feature", "properties": { "id": "3180387171", "name": "石山街 Rock Hill Street", "highway": "bus_stop", "railway": "nan", "building": "nan" }, "geometry": { "type": "Point", "coordinates": [ 114.1287317, 22.282029 ] } },
{ "type": "Feature", "properties": { "id": "3180387172", "name": "爹核士街 Davis Street", "highway": "bus_stop", "railway": "nan", "building": "nan" }, "geometry": { "type": "Point", "coordinates": [ 114.1277736, 22.283243 ] } },
{ "type": "Feature", "properties": { "id": "3180394897", "name": "西祥街 Sai Cheung Street", "highway": "bus_stop", "railway": "nan", "building": "nan" }, "geometry": { "type": "Point", "coordinates": [ 114.1309397, 22.2849921 ] } },
{ "type": "Feature", "properties": { "id": "3180394898", "name": "西祥街 Sai Cheung Street", "highway": "bus_stop", "railway": "nan", "building": "nan" }, "geometry": { "type": "Point", "coordinates": [ 114.1309486, 22.2849993 ] } },
{ "type": "Feature", "properties": { "id": "3276856738", "name": "香港潮商學校 Chiu Sheung School Hong Kong", "highway": "bus_stop", "railway": "nan", "building": "nan" }, "geometry": { "type": "Point", "coordinates": [ 114.136052, 22.2836217 ] } },
{ "type": "Feature", "properties": { "id": "3276856739", "name": "歌連臣街 Collinson Street", "highway": "bus_stop", "railway": "nan", "building": "nan" }, "geometry": { "type": "Point", "coordinates": [ 114.131945, 22.2862469 ] } },
{ "type": "Feature", "properties": { "id": "3276856740", "name": "香港大學西閘 HKU West Gate", "highway": "bus_stop", "railway": "nan", "building": "nan" }, "geometry": { "type": "Point", "coordinates": [ 114.1357101, 22.2835402 ] } },
{ "type": "Feature", "properties": { "id": "3276856741", "name": "香港大學百周年校園 HKU Centennial Campus", "highway": "bus_stop", "railway": "nan", "building": "nan" }, "geometry": { "type": "Point", "coordinates": [ 114.1349012, 22.2843186 ] } },
{ "type": "Feature", "properties": { "id": "3276856742", "name": "香港大學百周年校園 HKU Centennial Campus", "highway": "bus_stop", "railway": "nan", "building": "nan" }, "geometry": { "type": "Point", "coordinates": [ 114.1348853, 22.2843235 ] } },
{ "type": "Feature", "properties": { "id": "3276856743", "name": "堅尼地城站 Kennedy Town Station", "highway": "bus_stop", "railway": "nan", "building": "nan" }, "geometry": { "type": "Point", "coordinates": [ 114.1277042, 22.28134 ] } },
{ "type": "Feature", "properties": { "id": "3276856745", "name": "何東夫人堂 Lady Ho Tung Hall", "highway": "bus_stop", "railway": "nan", "building": "nan" }, "geometry": { "type": "Point", "coordinates": [ 114.1329446, 22.2836088 ] } },
{ "type": "Feature", "properties": { "id": "3276856746", "name": "何東夫人堂 Lady Ho Tung Hall", "highway": "bus_stop", "railway": "nan", "building": "nan" }, "geometry": { "type": "Point", "coordinates": [ 114.1333508, 22.2837222 ] } },
{ "type": "Feature", "properties": { "id": "3276856748", "name": "蒲飛路 Pokfield Road", "highway": "bus_stop", "railway": "nan", "building": "nan" }, "geometry": { "type": "Point", "coordinates": [ 114.1321871, 22.2818847 ] } },
{ "type": "Feature", "properties": { "id": "3276856749", "name": "蒲飛路 Pokfield Road", "highway": "bus_stop", "railway": "nan", "building": "nan" }, "geometry": { "type": "Point", "coordinates": [ 114.1324387, 22.2819941 ] } },
{ "type": "Feature", "properties": { "id": "3276856750", "name": "堅尼地城游泳池休憩處 Kennedy Town Swimming Pool Sitting-out Area", "highway": "bus_stop", "railway": "nan", "building": "nan" }, "geometry": { "type": "Point", "coordinates": [ 114.1325548, 22.287209 ] } },
{ "type": "Feature", "properties": { "id": "3276856751", "name": "堅尼地城游泳池休憩處 Kennedy Town Swimming Pool Sitting-out Area", "highway": "bus_stop", "railway": "nan", "building": "nan" }, "geometry": { "type": "Point", "coordinates": [ 114.1325379, 22.2871916 ] } },
{ "type": "Feature", "properties": { "id": "3276856754", "name": "西寶城 The Westwood", "highway": "bus_stop", "railway": "nan", "building": "nan" }, "geometry": { "type": "Point", "coordinates": [ 114.1326851, 22.2861831 ] } },
{ "type": "Feature", "properties": { "id": "3296355751", "name": "朝光街 Chiu Kwong Street", "highway": "bus_stop", "railway": "nan", "building": "nan" }, "geometry": { "type": "Point", "coordinates": [ 114.1397524, 22.2867537 ] } },
{ "type": "Feature", "properties": { "id": "3296355753", "name": "英皇書院 King's College", "highway": "bus_stop", "railway": "nan", "building": "nan" }, "geometry": { "type": "Point", "coordinates": [ 114.1397836, 22.28429 ] } },
{ "type": "Feature", "properties": { "id": "3296355754", "name": "英皇書院 King's College", "highway": "bus_stop", "railway": "nan", "building": "nan" }, "geometry": { "type": "Point", "coordinates": [ 114.1397785, 22.2842907 ] } },
{ "type": "Feature", "properties": { "id": "3296355755", "name": "李陞小學 Li Sing Primary School", "highway": "bus_stop", "railway": "nan", "building": "nan" }, "geometry": { "type": "Point", "coordinates": [ 114.1399376, 22.2854585 ] } },
{ "type": "Feature", "properties": { "id": "3296355758", "name": "西營盤郵政局 Sai Ying Pun Post Office", "highway": "bus_stop", "railway": "nan", "building": "nan" }, "geometry": { "type": "Point", "coordinates": [ 114.1399735, 22.2860065 ] } },
{ "type": "Feature", "properties": { "id": "3791000798", "name": "西營盤 Sai Ying Pun", "highway": "nan", "railway": "station", "building": "nan" }, "geometry": { "type": "Point", "coordinates": [ 114.1426424, 22.2854347 ] } },
{ "type": "Feature", "properties": { "id": "4876292629", "name": "聖士提反女子中學 St. Stephen's Girls' College", "highway": "bus_stop", "railway": "nan", "building": "nan" }, "geometry": { "type": "Point", "coordinates": [ 114.1433, 22.2839411 ] } },
{ "type": "Feature", "properties": { "id": "4876292661", "name": "威都閣 Villa Veneto", "highway": "bus_stop", "railway": "nan", "building": "nan" }, "geometry": { "type": "Point", "coordinates": [ 114.143632, 22.282462 ] } },
{ "type": "Feature", "properties": { "id": "4876292662", "name": "威都閣 Villa Veneto", "highway": "bus_stop", "railway": "nan", "building": "nan" }, "geometry": { "type": "Point", "coordinates": [ 114.143722, 22.28265 ] } },
{ "type": "Feature", "properties": { "id": "4876292678", "name": "聖士提反女子中學 St. Stephen's Girls' College", "highway": "bus_stop", "railway": "nan", "building": "nan" }, "geometry": { "type": "Point", "coordinates": [ 114.14403, 22.28322 ] } },
{ "type": "Feature", "properties": { "id": "4876292679", "name": "聖士提反女子中學 St. Stephen's Girls' College", "highway": "bus_stop", "railway": "nan", "building": "nan" }, "geometry": { "type": "Point", "coordinates": [ 114.14349, 22.283199 ] } },
{ "type": "Feature", "properties": { "id": "6011335444", "name": "東邊街 Eastern Street", "highway": "bus_stop", "railway": "nan", "building": "nan" }, "geometry": { "type": "Point", "coordinates": [ 114.1434342, 22.2843266 ] } },
{ "type": "Feature", "properties": { "id": "6135479158", "name": "香港大學 HKU", "highway": "nan", "railway": "station", "building": "nan" }, "geometry": { "type": "Point", "coordinates": [ 114.1355067, 22.2839758 ] } },
{ "type": "Feature", "properties": { "id": "6263073885", "name": "摩星嶺道 Mount Davis Road", "highway": "bus_stop", "railway": "nan", "building": "nan" }, "geometry": { "type": "Point", "coordinates": [ 114.1309449, 22.2782522 ] } },
{ "type": "Feature", "properties": { "id": "6276801086", "name": "薄扶林道遊樂場 Pok Fu Lam Road Playground", "highway": "bus_stop", "railway": "nan", "building": "nan" }, "geometry": { "type": "Point", "coordinates": [ 114.1311409, 22.2782167 ] } },
{ "type": "Feature", "properties": { "id": "6293092669", "name": "富林苑 Fulham Garden", "highway": "bus_stop", "railway": "nan", "building": "nan" }, "geometry": { "type": "Point", "coordinates": [ 114.13131, 22.2800017 ] } },
{ "type": "Feature", "properties": { "id": "6293092670", "name": "富林苑 Fulham Garden", "highway": "bus_stop", "railway": "nan", "building": "nan" }, "geometry": { "type": "Point", "coordinates": [ 114.1312488, 22.2798241 ] } },
{ "type": "Feature", "properties": { "id": "6311932096", "name": "香港大學西閘 HKU West Gate", "highway": "bus_stop", "railway": "nan", "building": "nan" }, "geometry": { "type": "Point", "coordinates": [ 114.1359244, 22.2834714 ] } },
{ "type": "Feature", "properties": { "id": "6720421967", "name": "卑路乍灣 Belcher Bay", "highway": "bus_stop", "railway": "nan", "building": "nan" }, "geometry": { "type": "Point", "coordinates": [ 114.128547, 22.2844495 ] } },
{ "type": "Feature", "properties": { "id": "6720421968", "name": "卑路乍灣 Belcher Bay", "highway": "bus_stop", "railway": "nan", "building": "nan" }, "geometry": { "type": "Point", "coordinates": [ 114.1285123, 22.284495 ] } },
{ "type": "Feature", "properties": { "id": "6720421969", "name": "卑路乍灣 Belcher Bay", "highway": "bus_stop", "railway": "nan", "building": "nan" }, "geometry": { "type": "Point", "coordinates": [ 114.1284487, 22.2846327 ] } },
{ "type": "Feature", "properties": { "id": "6720421970", "name": "卑路乍灣 Belcher Bay", "highway": "bus_stop", "railway": "nan", "building": "nan" }, "geometry": { "type": "Point", "coordinates": [ 114.1284597, 22.2845374 ] } },
{ "type": "Feature", "properties": { "id": "6720605514", "name": "爹核士街 Davis Street", "highway": "bus_stop", "railway": "nan", "building": "nan" }, "geometry": { "type": "Point", "coordinates": [ 114.1264739, 22.2830519 ] } },
{ "type": "Feature", "properties": { "id": "6720605532", "name": "堅尼地城站 Kennedy Town Station", "highway": "bus_stop", "railway": "nan", "building": "nan" }, "geometry": { "type": "Point", "coordinates": [ 114.1290048, 22.2812183 ] } },
{ "type": "Feature", "properties": { "id": "6777088713", "name": "堅尼地城站 Kennedy Town Station", "highway": "bus_stop", "railway": "nan", "building": "nan" }, "geometry": { "type": "Point", "coordinates": [ 114.1287969, 22.2814945 ] } },
{ "type": "Feature", "properties": { "id": "6777088714", "name": "堅尼地城站 Kennedy Town Station", "highway": "bus_stop", "railway": "nan", "building": "nan" }, "geometry": { "type": "Point", "coordinates": [ 114.1287835, 22.2810874 ] } },
{ "type": "Feature", "properties": { "id": "6777088715", "name": "堅尼地城站 Kennedy Town Station", "highway": "bus_stop", "railway": "nan", "building": "nan" }, "geometry": { "type": "Point", "coordinates": [ 114.1288935, 22.281214 ] } },
{ "type": "Feature", "properties": { "id": "6778581522", "name": "香港大學站 HKU Station", "highway": "bus_stop", "railway": "nan", "building": "nan" }, "geometry": { "type": "Point", "coordinates": [ 114.1341875, 22.2844491 ] } },
{ "type": "Feature", "properties": { "id": "7934602429", "name": "香港大學東閘 HKU East Gate", "highway": "bus_stop", "railway": "nan", "building": "nan" }, "geometry": { "type": "Point", "coordinates": [ 114.1389124, 22.2838815 ] } },
{ "type": "Feature", "properties": { "id": "7968671290", "name": "正街 Centre Street", "highway": "bus_stop", "railway": "nan", "building": "nan" }, "geometry": { "type": "Point", "coordinates": [ 114.1421738, 22.2844322 ] } },
{ "type": "Feature", "properties": { "id": "7988168339", "name": "中山紀念公園 Sun Yat Sen Memorial Park", "highway": "bus_stop", "railway": "nan", "building": "nan" }, "geometry": { "type": "Point", "coordinates": [ 114.1443272, 22.2890961 ] } },
{ "type": "Feature", "properties": { "id": "7988168344", "name": "西邊街 Western Street", "highway": "bus_stop", "railway": "nan", "building": "nan" }, "geometry": { "type": "Point", "coordinates": [ 114.1414986, 22.2869026 ] } },
{ "type": "Feature", "properties": { "id": "7988168345", "name": "西邊街 Western Street", "highway": "bus_stop", "railway": "nan", "building": "nan" }, "geometry": { "type": "Point", "coordinates": [ 114.1414541, 22.2869042 ] } },
{ "type": "Feature", "properties": { "id": "7988168346", "name": "西邊街 Western Street", "highway": "bus_stop", "railway": "nan", "building": "nan" }, "geometry": { "type": "Point", "coordinates": [ 114.1416004, 22.2868989 ] } },
{ "type": "Feature", "properties": { "id": "7988168347", "name": "正街 Centre Street", "highway": "bus_stop", "railway": "nan", "building": "nan" }, "geometry": { "type": "Point", "coordinates": [ 114.1427667, 22.2868296 ] } },
{ "type": "Feature", "properties": { "id": "7988168348", "name": "正街 Centre Street", "highway": "bus_stop", "railway": "nan", "building": "nan" }, "geometry": { "type": "Point", "coordinates": [ 114.1428408, 22.2868268 ] } },
{ "type": "Feature", "properties": { "id": "7988407043", "name": "西環（卑路乍街） Kennedy Town (Davis Street)", "highway": "bus_stop", "railway": "nan", "building": "nan" }, "geometry": { "type": "Point", "coordinates": [ 114.1269078, 22.2818705 ] } },
{ "type": "Feature", "properties": { "id": "7988407044", "name": "堅尼地城（科士街） Kennedy Town (Forbes Street)", "highway": "bus_stop", "railway": "nan", "building": "nan" }, "geometry": { "type": "Point", "coordinates": [ 114.1271299, 22.2812289 ] } },
{ "type": "Feature", "properties": { "id": "7988407060", "name": "學士臺 Academic Terrace", "highway": "bus_stop", "railway": "nan", "building": "nan" }, "geometry": { "type": "Point", "coordinates": [ 114.1316492, 22.2816747 ] } },
{ "type": "Feature", "properties": { "id": "8000089681", "name": "港島太平洋酒店 Island Pacific Hotel", "highway": "bus_stop", "railway": "nan", "building": "nan" }, "geometry": { "type": "Point", "coordinates": [ 114.1422939, 22.2880966 ] } },
{ "type": "Feature", "properties": { "id": "8000089682", "name": "西環（觀龍樓） Sai Wan (Kwun Lung Lau)", "highway": "bus_stop", "railway": "nan", "building": "nan" }, "geometry": { "type": "Point", "coordinates": [ 114.1286376, 22.2797655 ] } },
{ "type": "Feature", "properties": { "id": "8000151611", "name": "堅尼地城站 Kennedy Town Station", "highway": "nan", "railway": "nan", "building": "nan" }, "geometry": { "type": "Point", "coordinates": [ 114.1287375, 22.2812764 ] } },
{ "type": "Feature", "properties": { "id": "8194189875", "name": "嘉賢大廈 Alpine Court", "highway": "bus_stop", "railway": "nan", "building": "nan" }, "geometry": { "type": "Point", "coordinates": [ 114.1418193, 22.2816012 ] } },
{ "type": "Feature", "properties": { "id": "9085332216", "name": "堅尼地城 Kennedy Town", "highway": "nan", "railway": "station", "building": "nan" }, "geometry": { "type": "Point", "coordinates": [ 114.1283812, 22.2812252 ] } },
{ "type": "Feature", "properties": { "id": "11716804821", "name": "嘉賢大廈 Alpine Court", "highway": "bus_stop", "railway": "nan", "building": "nan" }, "geometry": { "type": "Point", "coordinates": [ 114.142331, 22.282001 ] } },
{ "type": "Feature", "properties": { "id": "12101182162", "name": "北街 North Street", "highway": "bus_stop", "railway": "nan", "building": "nan" }, "geometry": { "type": "Point", "coordinates": [ 114.1287401, 22.282649 ] } },
{ "type": "Feature", "properties": { "id": "12848460022", "name": "堅彌地城新海旁 New Praya, Kennedy Town", "highway": "bus_stop", "railway": "nan", "building": "nan" }, "geometry": { "type": "Point", "coordinates": [ 114.1281131, 22.2844382 ] } },
{ "type": "Feature", "properties": { "id": "248775630", "name": "堅尼地城 Kennedy Town", "highway": "nan", "railway": "station", "building": "train_station" }, "geometry": { "type": "Polygon", "coordinates": [ [ [ 114.1293974, 22.2818208 ], [ 114.1294424, 22.281617 ], [ 114.1295133, 22.2813773 ], [ 114.1288717, 22.2812281 ], [ 114.1289037, 22.2811271 ], [ 114.1285282, 22.2810256 ], [ 114.1284955, 22.2811398 ], [ 114.128191, 22.2810673 ], [ 114.1282389, 22.2809459 ], [ 114.1280822, 22.2808974 ], [ 114.1280305, 22.2810274 ], [ 114.1274877, 22.2808872 ], [ 114.1274223, 22.2811097 ], [ 114.1293257, 22.2815931 ], [ 114.1292864, 22.2817989 ], [ 114.1292206, 22.2820836 ], [ 114.1293317, 22.2821055 ], [ 114.1293974, 22.2818208 ] ] ] } },
{ "type": "Feature", "properties": { "id": "875004398", "name": "堅尼地城（卑路乍灣） Kennedy Town (Belcher Bay)", "highway": "nan", "railway": "nan", "building": "nan" }, "geometry": { "type": "Polygon", "coordinates": [ [ [ 114.1280445, 22.2842092 ], [ 114.1282126, 22.2842368 ], [ 114.1285193, 22.2843107 ], [ 114.1286987, 22.2843716 ], [ 114.1288154, 22.2844281 ], [ 114.1284981, 22.2847312 ], [ 114.1284601, 22.2847347 ], [ 114.1283958, 22.2846737 ], [ 114.1283511, 22.2847175 ], [ 114.127912, 22.2843274 ], [ 114.1280445, 22.2842092 ] ] ] } },
{ "type": "Feature", "properties": { "id": "1258590813", "name": "蒲飛路 Pokfield Road", "highway": "nan", "railway": "nan", "building": "nan" }, "geometry": { "type": "Polygon", "coordinates": [ [ [ 114.1324344, 22.2819085 ], [ 114.1322205, 22.2815977 ], [ 114.1323411, 22.2816056 ], [ 114.1324305, 22.2817359 ], [ 114.1324344, 22.2819085 ] ] ] } }
]
}
