{
  "type": "FeatureCollection",
  "name": "hku_micro_transit_points_teaching_sample",
  "features": [
    {"type": "Feature", "properties": {"stop_id": "T1", "name": "HKU Station Exit A", "mode": "MTR", "source_note": "approximate teaching coordinate"}, "geometry": {"type": "Point", "coordinates": [114.13524, 22.28444]}},
    {"type": "Feature", "properties": {"stop_id": "T2", "name": "HKU Station Exit C", "mode": "MTR", "source_note": "approximate teaching coordinate"}, "geometry": {"type": "Point", "coordinates": [114.13632, 22.28382]}},
    {"type": "Feature", "properties": {"stop_id": "T3", "name": "Pok Fu Lam Road bus stop", "mode": "bus", "source_note": "approximate teaching coordinate"}, "geometry": {"type": "Point", "coordinates": [114.13778, 22.28252]}},
    {"type": "Feature", "properties": {"stop_id": "T4", "name": "Hill Road bus stop", "mode": "bus", "source_note": "approximate teaching coordinate"}, "geometry": {"type": "Point", "coordinates": [114.13262, 22.28662]}},
    {"type": "Feature", "properties": {"stop_id": "T5", "name": "Queen's Road West tram/bus edge", "mode": "tram/bus", "source_note": "approximate teaching coordinate"}, "geometry": {"type": "Point", "coordinates": [114.13220, 22.28780]}}
  ]
}
