{
  "type": "FeatureCollection",
  "features": [
    {
      "type": "Feature",
      "properties": {"site_id": "A", "current_use": "vacant lot"},
      "geometry": {"type": "Polygon", "coordinates": [[[0, 0], [120, 0], [120, 100], [0, 100], [0, 0]]]}
    },
    {
      "type": "Feature",
      "properties": {"site_id": "B", "current_use": "market edge"},
      "geometry": {"type": "Polygon", "coordinates": [[[230, 20], [360, 20], [360, 130], [230, 130], [230, 20]]]}
    },
    {
      "type": "Feature",
      "properties": {"site_id": "C", "current_use": "school frontage"},
      "geometry": {"type": "Polygon", "coordinates": [[[80, 190], [230, 190], [230, 310], [80, 310], [80, 190]]]}
    }
  ]
}
