{
  "type": "FeatureCollection",
  "name": "hku_micro_synthetic_grocery_points",
  "features": [
    {"type": "Feature", "properties": {"shop_id": "G1", "name": "synthetic convenience store", "synthetic": true}, "geometry": {"type": "Point", "coordinates": [114.13505, 22.28495]}},
    {"type": "Feature", "properties": {"shop_id": "G2", "name": "synthetic wet-market edge", "synthetic": true}, "geometry": {"type": "Point", "coordinates": [114.13272, 22.28690]}},
    {"type": "Feature", "properties": {"shop_id": "G3", "name": "synthetic small supermarket", "synthetic": true}, "geometry": {"type": "Point", "coordinates": [114.13740, 22.28220]}},
    {"type": "Feature", "properties": {"shop_id": "G4", "name": "synthetic campus food shop", "synthetic": true}, "geometry": {"type": "Point", "coordinates": [114.13602, 22.28332]}}
  ]
}
