{
  "type": "FeatureCollection",
  "features": [
    {
      "type": "Feature",
      "properties": {"zone_id": "N1", "source": "arterial road", "level": "high"},
      "geometry": {"type": "Polygon", "coordinates": [[[-40, -70], [390, -70], [390, 50], [-40, 50], [-40, -70]]]}
    },
    {
      "type": "Feature",
      "properties": {"zone_id": "N2", "source": "service yard", "level": "medium"},
      "geometry": {"type": "Polygon", "coordinates": [[[250, 80], [410, 80], [410, 230], [250, 230], [250, 80]]]}
    }
  ]
}
